{
"type": "FeatureCollection",
"name": "top20_priority_clusters",
"crs": { "type": "name", "properties": { "name": "urn:ogc:def:crs:OGC:1.3:CRS84" } },
"features": [
{ "type": "Feature", "properties": { "cluster_id": 327, "n_detections": 216, "centroid_lat": 2.274, "centroid_lon": 117.902, "max_frp": 60.74, "avg_frp": 9.31, "avg_confidence": 1.82, "first_date": "2026-08-14", "last_date": "2026-08-20", "province": "East Kalimantan", "regency": "Berau", "first_dt": "2026-08-14T00:00:00", "last_dt": "2026-08-20T00:00:00", "duration_days": 7, "priority_score": 0.8592, "priority_rank": 1 }, "geometry": { "type": "Point", "coordinates": [ 117.902, 2.274 ] } },
{ "type": "Feature", "properties": { "cluster_id": 318, "n_detections": 113, "centroid_lat": 0.211, "centroid_lon": 109.794, "max_frp": 88.94, "avg_frp": 15.51, "avg_confidence": 1.6, "first_date": "2026-08-16", "last_date": "2026-08-20", "province": "West Kalimantan", "regency": "Landak", "first_dt": "2026-08-16T00:00:00", "last_dt": "2026-08-20T00:00:00", "duration_days": 5, "priority_score": 0.53, "priority_rank": 2 }, "geometry": { "type": "Point", "coordinates": [ 109.794, 0.211 ] } },
{ "type": "Feature", "properties": { "cluster_id": 299, "n_detections": 95, "centroid_lat": 0.086, "centroid_lon": 110.951, "max_frp": 77.58, "avg_frp": 10.99, "avg_confidence": 1.55, "first_date": "2026-08-15", "last_date": "2026-08-20", "province": "West Kalimantan", "regency": "Sekadau", "first_dt": "2026-08-15T00:00:00", "last_dt": "2026-08-20T00:00:00", "duration_days": 6, "priority_score": 0.5292, "priority_rank": 3 }, "geometry": { "type": "Point", "coordinates": [ 110.951, 0.086 ] } },
{ "type": "Feature", "properties": { "cluster_id": 256, "n_detections": 90, "centroid_lat": 2.89, "centroid_lon": 116.89, "max_frp": 91.0, "avg_frp": 19.66, "avg_confidence": 1.7, "first_date": "2026-08-16", "last_date": "2026-08-20", "province": "North Kalimantan", "regency": "Bulungan", "first_dt": "2026-08-16T00:00:00", "last_dt": "2026-08-20T00:00:00", "duration_days": 5, "priority_score": 0.5125, "priority_rank": 4 }, "geometry": { "type": "Point", "coordinates": [ 116.89, 2.89 ] } },
{ "type": "Feature", "properties": { "cluster_id": 243, "n_detections": 103, "centroid_lat": 0.157, "centroid_lon": 110.486, "max_frp": 41.93, "avg_frp": 7.86, "avg_confidence": 1.45, "first_date": "2026-08-14", "last_date": "2026-08-20", "province": "West Kalimantan", "regency": "Sanggau", "first_dt": "2026-08-14T00:00:00", "last_dt": "2026-08-20T00:00:00", "duration_days": 7, "priority_score": 0.4592, "priority_rank": 5 }, "geometry": { "type": "Point", "coordinates": [ 110.486, 0.157 ] } },
{ "type": "Feature", "properties": { "cluster_id": 298, "n_detections": 48, "centroid_lat": 0.45, "centroid_lon": 112.85, "max_frp": 50.91, "avg_frp": 11.34, "avg_confidence": 1.5, "first_date": "2026-08-15", "last_date": "2026-08-20", "province": "West Kalimantan", "regency": "Kapuas Hulu", "first_dt": "2026-08-15T00:00:00", "last_dt": "2026-08-20T00:00:00", "duration_days": 6, "priority_score": 0.2968, "priority_rank": 6 }, "geometry": { "type": "Point", "coordinates": [ 112.85, 0.45 ] } },
{ "type": "Feature", "properties": { "cluster_id": 317, "n_detections": 67, "centroid_lat": 3.12, "centroid_lon": 116.12, "max_frp": 31.51, "avg_frp": 11.48, "avg_confidence": 1.4, "first_date": "2026-08-14", "last_date": "2026-08-19", "province": "North Kalimantan", "regency": "Malinau", "first_dt": "2026-08-14T00:00:00", "last_dt": "2026-08-19T00:00:00", "duration_days": 6, "priority_score": 0.2253, "priority_rank": 7 }, "geometry": { "type": "Point", "coordinates": [ 116.12, 3.12 ] } },
{ "type": "Feature", "properties": { "cluster_id": 58, "n_detections": 117, "centroid_lat": -1.938, "centroid_lon": 110.248, "max_frp": 37.29, "avg_frp": 7.4, "avg_confidence": 1.25, "first_date": "2026-08-15", "last_date": "2026-08-19", "province": "West Kalimantan", "regency": "Ketapang", "first_dt": "2026-08-15T00:00:00", "last_dt": "2026-08-19T00:00:00", "duration_days": 5, "priority_score": 0.2251, "priority_rank": 8 }, "geometry": { "type": "Point", "coordinates": [ 110.248, -1.938 ] } },
{ "type": "Feature", "properties": { "cluster_id": 314, "n_detections": 91, "centroid_lat": 1.845, "centroid_lon": 117.421, "max_frp": 29.26, "avg_frp": 5.74, "avg_confidence": 1.2, "first_date": "2026-08-15", "last_date": "2026-08-20", "province": "East Kalimantan", "regency": "Kutai Timur", "first_dt": "2026-08-15T00:00:00", "last_dt": "2026-08-20T00:00:00", "duration_days": 6, "priority_score": 0.2231, "priority_rank": 9 }, "geometry": { "type": "Point", "coordinates": [ 117.421, 1.845 ] } },
{ "type": "Feature", "properties": { "cluster_id": 16, "n_detections": 54, "centroid_lat": -2.15, "centroid_lon": 112.98, "max_frp": 26.53, "avg_frp": 3.24, "avg_confidence": 1.1, "first_date": "2026-08-13", "last_date": "2026-08-18", "province": "Central Kalimantan", "regency": "Kotawaringin Timur", "first_dt": "2026-08-13T00:00:00", "last_dt": "2026-08-18T00:00:00", "duration_days": 6, "priority_score": 0.1125, "priority_rank": 10 }, "geometry": { "type": "Point", "coordinates": [ 112.98, -2.15 ] } }
]
}
