{
  "type": "FeatureCollection",
  "features": [
    {
      "type": "Feature",
      "geometry": {
        "type": "LineString",
        "coordinates": [
          [
            117.902,
            2.274
          ],
          [
            117.88155604864265,
            2.2911410029249746
          ]
        ]
      },
      "properties": {
        "cluster_id": 327,
        "province": "Kalimantan Timur",
        "regency": "Berau",
        "displacement_km": 2.96,
        "propagation_speed_kmd": 0.42,
        "heading_deg": 310.0,
        "persistence_risk": "Extreme",
        "persistence_prob_48h": 0.993
      }
    },
    {
      "type": "Feature",
      "geometry": {
        "type": "LineString",
        "coordinates": [
          [
            109.794,
            0.211
          ],
          [
            109.79039637196045,
            0.21724162453177973
          ]
        ]
      },
      "properties": {
        "cluster_id": 318,
        "province": "Kalimantan Barat",
        "regency": "Landak",
        "displacement_km": 0.8,
        "propagation_speed_kmd": 0.11,
        "heading_deg": 330.0,
        "persistence_risk": "Extreme",
        "persistence_prob_48h": 0.975
      }
    },
    {
      "type": "Feature",
      "geometry": {
        "type": "LineString",
        "coordinates": [
          [
            110.951,
            0.086
          ],
          [
            110.94964864712638,
            0.0883406091994174
          ]
        ]
      },
      "properties": {
        "cluster_id": 299,
        "province": "Kalimantan Barat",
        "regency": "Sekadau",
        "displacement_km": 0.3,
        "propagation_speed_kmd": 0.04,
        "heading_deg": 330.0,
        "persistence_risk": "Extreme",
        "persistence_prob_48h": 0.858
      }
    },
    {
      "type": "Feature",
      "geometry": {
        "type": "LineString",
        "coordinates": [
          [
            116.89,
            2.89
          ],
          [
            116.88792697307973,
            2.8917372638099637
          ]
        ]
      },
      "properties": {
        "cluster_id": 256,
        "province": "Kalimantan Utara",
        "regency": "Bulungan",
        "displacement_km": 0.3,
        "propagation_speed_kmd": 0.04,
        "heading_deg": 310.0,
        "persistence_risk": "High",
        "persistence_prob_48h": 0.69
      }
    },
    {
      "type": "Feature",
      "geometry": {
        "type": "LineString",
        "coordinates": [
          [
            110.486,
            0.157
          ],
          [
            110.48464864357531,
            0.1593406091994174
          ]
        ]
      },
      "properties": {
        "cluster_id": 243,
        "province": "Kalimantan Barat",
        "regency": "Sanggau",
        "displacement_km": 0.3,
        "propagation_speed_kmd": 0.04,
        "heading_deg": 330.0,
        "persistence_risk": "High",
        "persistence_prob_48h": 0.727
      }
    },
    {
      "type": "Feature",
      "geometry": {
        "type": "LineString",
        "coordinates": [
          [
            112.85,
            0.45
          ],
          [
            112.84801795688713,
            0.45343289349247884
          ]
        ]
      },
      "properties": {
        "cluster_id": 298,
        "province": "Kalimantan Barat",
        "regency": "Kapuas Hulu",
        "displacement_km": 0.44,
        "propagation_speed_kmd": 0.06,
        "heading_deg": 330.0,
        "persistence_risk": "Moderate",
        "persistence_prob_48h": 0.546
      }
    },
    {
      "type": "Feature",
      "geometry": {
        "type": "LineString",
        "coordinates": [
          [
            116.12,
            3.12
          ],
          [
            116.11716626611953,
            3.1223742605402838
          ]
        ]
      },
      "properties": {
        "cluster_id": 317,
        "province": "Kalimantan Utara",
        "regency": "Malinau",
        "displacement_km": 0.41,
        "propagation_speed_kmd": 0.07,
        "heading_deg": 310.0,
        "persistence_risk": "Low",
        "persistence_prob_48h": 0.244
      }
    },
    {
      "type": "Feature",
      "geometry": {
        "type": "LineString",
        "coordinates": [
          [
            110.248,
            -1.938
          ],
          [
            110.24489011305766,
            -1.93261659884134
          ]
        ]
      },
      "properties": {
        "cluster_id": 58,
        "province": "Kalimantan Barat",
        "regency": "Ketapang",
        "displacement_km": 0.69,
        "propagation_speed_kmd": 0.11,
        "heading_deg": 330.0,
        "persistence_risk": "Extreme",
        "persistence_prob_48h": 0.894
      }
    },
    {
      "type": "Feature",
      "geometry": {
        "type": "LineString",
        "coordinates": [
          [
            117.421,
            1.845
          ],
          [
            117.4176856571666,
            1.8477796220959417
          ]
        ]
      },
      "properties": {
        "cluster_id": 314,
        "province": "Kalimantan Timur",
        "regency": "Kutai Timur",
        "displacement_km": 0.48,
        "propagation_speed_kmd": 0.08,
        "heading_deg": 310.0,
        "persistence_risk": "High",
        "persistence_prob_48h": 0.634
      }
    },
    {
      "type": "Feature",
      "geometry": {
        "type": "LineString",
        "coordinates": [
          [
            112.98,
            -2.15
          ],
          [
            112.97697985590806,
            -2.1447726394546343
          ]
        ]
      },
      "properties": {
        "cluster_id": 16,
        "province": "Kalimantan Tengah",
        "regency": "Kotawaringin Timur",
        "displacement_km": 0.67,
        "propagation_speed_kmd": 0.13,
        "heading_deg": 330.0,
        "persistence_risk": "Extreme",
        "persistence_prob_48h": 0.862
      }
    }
  ]
}