{
"type": "FeatureCollection",
"name": "top20_environmental_clusters",
"crs": { "type": "name", "properties": { "name": "urn:ogc:def:crs:OGC:1.3:CRS84" } },
"features": [
{ "type": "Feature", "properties": { "cluster_id": 327, "priority_rank": 1, "province": "East Kalimantan", "regency": "Berau", "total_burned_ha": 1727.77, "precip_30d_mm": 38.5, "precip_90d_mm": 319.6, "precip_anomaly_30d_pct": -74.3, "precip_anomaly_90d_pct": -29.0, "dry_days_30d": 26, "max_air_temp_c": 35.0, "mean_lst_day_c": 29.8, "max_wind_speed_kmh": 6.9, "prevailing_wind_dir": "BL (Barat Laut)", "kbdi_score": 521.4, "kbdi_class": "Kering (Dry)", "dominant_landcover": "Tutupan Pohon / Hutan (Tree Cover)", "tree_cover_pct": 68.4, "shrubland_pct": 18.2, "cropland_pct": 10.5, "is_peatland": true, "peatland_pct": 34.0, "burned_on_peat_ha": 587.44 }, "geometry": { "type": "Point", "coordinates": [ 117.902, 2.274 ] } },
{ "type": "Feature", "properties": { "cluster_id": 318, "priority_rank": 2, "province": "West Kalimantan", "regency": "Landak", "total_burned_ha": 0.0, "precip_30d_mm": 27.0, "precip_90d_mm": 330.5, "precip_anomaly_30d_pct": -82.0, "precip_anomaly_90d_pct": -26.6, "dry_days_30d": 27, "max_air_temp_c": 35.0, "mean_lst_day_c": 39.0, "max_wind_speed_kmh": 6.9, "prevailing_wind_dir": "BL (Barat Laut)", "kbdi_score": 512.9, "kbdi_class": "Kering (Dry)", "dominant_landcover": "Tutupan Pohon / Hutan (Tree Cover)", "tree_cover_pct": 68.4, "shrubland_pct": 18.2, "cropland_pct": 10.5, "is_peatland": true, "peatland_pct": 34.0, "burned_on_peat_ha": 0.0 }, "geometry": { "type": "Point", "coordinates": [ 109.794, 0.211 ] } },
{ "type": "Feature", "properties": { "cluster_id": 299, "priority_rank": 3, "province": "West Kalimantan", "regency": "Sekadau", "total_burned_ha": 0.0, "precip_30d_mm": 40.9, "precip_90d_mm": 374.6, "precip_anomaly_30d_pct": -72.7, "precip_anomaly_90d_pct": -16.8, "dry_days_30d": 25, "max_air_temp_c": 35.0, "mean_lst_day_c": 39.0, "max_wind_speed_kmh": 6.9, "prevailing_wind_dir": "BL (Barat Laut)", "kbdi_score": 478.6, "kbdi_class": "Kering (Dry)", "dominant_landcover": "Tutupan Pohon / Hutan (Tree Cover)", "tree_cover_pct": 68.4, "shrubland_pct": 18.2, "cropland_pct": 10.5, "is_peatland": false, "peatland_pct": 8.5, "burned_on_peat_ha": 0.0 }, "geometry": { "type": "Point", "coordinates": [ 110.951, 0.086 ] } },
{ "type": "Feature", "properties": { "cluster_id": 256, "priority_rank": 4, "province": "North Kalimantan", "regency": "Bulungan", "total_burned_ha": 0.0, "precip_30d_mm": 118.7, "precip_90d_mm": 703.2, "precip_anomaly_30d_pct": -20.9, "precip_anomaly_90d_pct": 56.3, "dry_days_30d": 18, "max_air_temp_c": 35.0, "mean_lst_day_c": 25.8, "max_wind_speed_kmh": 6.9, "prevailing_wind_dir": "BL (Barat Laut)", "kbdi_score": 420.0, "kbdi_class": "Kering (Dry)", "dominant_landcover": "Tutupan Pohon / Hutan (Tree Cover)", "tree_cover_pct": 68.4, "shrubland_pct": 18.2, "cropland_pct": 10.5, "is_peatland": false, "peatland_pct": 8.5, "burned_on_peat_ha": 0.0 }, "geometry": { "type": "Point", "coordinates": [ 116.89, 2.89 ] } },
{ "type": "Feature", "properties": { "cluster_id": 243, "priority_rank": 5, "province": "West Kalimantan", "regency": "Sanggau", "total_burned_ha": 0.0, "precip_30d_mm": 47.0, "precip_90d_mm": 386.6, "precip_anomaly_30d_pct": -68.7, "precip_anomaly_90d_pct": -14.1, "dry_days_30d": 25, "max_air_temp_c": 35.0, "mean_lst_day_c": 39.0, "max_wind_speed_kmh": 6.9, "prevailing_wind_dir": "BL (Barat Laut)", "kbdi_score": 469.3, "kbdi_class": "Kering (Dry)", "dominant_landcover": "Tutupan Pohon / Hutan (Tree Cover)", "tree_cover_pct": 68.4, "shrubland_pct": 18.2, "cropland_pct": 10.5, "is_peatland": false, "peatland_pct": 8.5, "burned_on_peat_ha": 0.0 }, "geometry": { "type": "Point", "coordinates": [ 110.486, 0.157 ] } },
{ "type": "Feature", "properties": { "cluster_id": 298, "priority_rank": 6, "province": "West Kalimantan", "regency": "Kapuas Hulu", "total_burned_ha": 111.86, "precip_30d_mm": 64.6, "precip_90d_mm": 435.8, "precip_anomaly_30d_pct": -56.9, "precip_anomaly_90d_pct": -3.2, "dry_days_30d": 23, "max_air_temp_c": 35.0, "mean_lst_day_c": 26.3, "max_wind_speed_kmh": 6.9, "prevailing_wind_dir": "BL (Barat Laut)", "kbdi_score": 431.0, "kbdi_class": "Kering (Dry)", "dominant_landcover": "Tutupan Pohon / Hutan (Tree Cover)", "tree_cover_pct": 68.4, "shrubland_pct": 18.2, "cropland_pct": 10.5, "is_peatland": false, "peatland_pct": 8.5, "burned_on_peat_ha": 9.51 }, "geometry": { "type": "Point", "coordinates": [ 112.85, 0.45 ] } },
{ "type": "Feature", "properties": { "cluster_id": 317, "priority_rank": 7, "province": "North Kalimantan", "regency": "Malinau", "total_burned_ha": 90.07, "precip_30d_mm": 158.9, "precip_90d_mm": 920.9, "precip_anomaly_30d_pct": 5.9, "precip_anomaly_90d_pct": 104.6, "dry_days_30d": 14, "max_air_temp_c": 24.8, "mean_lst_day_c": 21.7, "max_wind_speed_kmh": 1.0, "prevailing_wind_dir": "BL (Barat Laut)", "kbdi_score": 199.7, "kbdi_class": "Basah (Wet)", "dominant_landcover": "Tutupan Pohon / Hutan (Tree Cover)", "tree_cover_pct": 68.4, "shrubland_pct": 18.2, "cropland_pct": 10.5, "is_peatland": false, "peatland_pct": 8.5, "burned_on_peat_ha": 7.66 }, "geometry": { "type": "Point", "coordinates": [ 116.12, 3.12 ] } },
{ "type": "Feature", "properties": { "cluster_id": 58, "priority_rank": 8, "province": "West Kalimantan", "regency": "Ketapang", "total_burned_ha": 312.97, "precip_30d_mm": 0.1, "precip_90d_mm": 269.7, "precip_anomaly_30d_pct": -99.9, "precip_anomaly_90d_pct": -40.1, "dry_days_30d": 29, "max_air_temp_c": 28.5, "mean_lst_day_c": 27.6, "max_wind_speed_kmh": 7.0, "prevailing_wind_dir": "TG (Tenggara)", "kbdi_score": 419.8, "kbdi_class": "Kering (Dry)", "dominant_landcover": "Tutupan Pohon / Hutan (Tree Cover)", "tree_cover_pct": 68.4, "shrubland_pct": 18.2, "cropland_pct": 10.5, "is_peatland": true, "peatland_pct": 72.5, "burned_on_peat_ha": 226.9 }, "geometry": { "type": "Point", "coordinates": [ 110.248, -1.938 ] } },
{ "type": "Feature", "properties": { "cluster_id": 314, "priority_rank": 9, "province": "East Kalimantan", "regency": "Kutai Timur", "total_burned_ha": 147.55, "precip_30d_mm": 44.8, "precip_90d_mm": 382.0, "precip_anomaly_30d_pct": -70.1, "precip_anomaly_90d_pct": -15.1, "dry_days_30d": 25, "max_air_temp_c": 35.0, "mean_lst_day_c": 24.0, "max_wind_speed_kmh": 6.9, "prevailing_wind_dir": "BL (Barat Laut)", "kbdi_score": 472.9, "kbdi_class": "Kering (Dry)", "dominant_landcover": "Tutupan Pohon / Hutan (Tree Cover)", "tree_cover_pct": 68.4, "shrubland_pct": 18.2, "cropland_pct": 10.5, "is_peatland": false, "peatland_pct": 8.5, "burned_on_peat_ha": 12.54 }, "geometry": { "type": "Point", "coordinates": [ 117.421, 1.845 ] } },
{ "type": "Feature", "properties": { "cluster_id": 16, "priority_rank": 10, "province": "Central Kalimantan", "regency": "Kotawaringin Timur", "total_burned_ha": 294.05, "precip_30d_mm": 14.7, "precip_90d_mm": 272.4, "precip_anomaly_30d_pct": -90.2, "precip_anomaly_90d_pct": -39.5, "dry_days_30d": 28, "max_air_temp_c": 28.4, "mean_lst_day_c": 26.9, "max_wind_speed_kmh": 6.1, "prevailing_wind_dir": "TG (Tenggara)", "kbdi_score": 415.6, "kbdi_class": "Kering (Dry)", "dominant_landcover": "Tutupan Pohon / Hutan (Tree Cover)", "tree_cover_pct": 68.4, "shrubland_pct": 18.2, "cropland_pct": 10.5, "is_peatland": true, "peatland_pct": 72.5, "burned_on_peat_ha": 213.19 }, "geometry": { "type": "Point", "coordinates": [ 112.98, -2.15 ] } }
]
}
