{
"type": "FeatureCollection",
"name": "cluster_317_burned_perimeter",
"crs": { "type": "name", "properties": { "name": "urn:ogc:def:crs:OGC:1.3:CRS84" } },
"features": [
{ "type": "Feature", "properties": { "count": 2, "label": 1, "cluster_id": 317 }, "geometry": { "type": "Polygon", "coordinates": [ [ [ 116.077606068072214, 3.118591340349331 ], [ 116.077965394185853, 3.118591340349331 ], [ 116.077965394185853, 3.118771003406155 ], [ 116.077606068072214, 3.118771003406155 ], [ 116.077606068072214, 3.118591340349331 ] ] ] } },
{ "type": "Feature", "properties": { "count": 6, "label": 1, "cluster_id": 317 }, "geometry": { "type": "Polygon", "coordinates": [ [ [ 116.079762024754089, 3.119848981747098 ], [ 116.080301013924569, 3.119848981747098 ], [ 116.080301013924569, 3.120208307860746 ], [ 116.079762024754089, 3.120208307860746 ], [ 116.079762024754089, 3.119848981747098 ] ] ] } },
{ "type": "Feature", "properties": { "count": 1, "label": 1, "cluster_id": 317 }, "geometry": { "type": "Polygon", "coordinates": [ [ [ 116.083355285890576, 3.134940678520306 ], [ 116.083534948947403, 3.134940678520306 ], [ 116.083534948947403, 3.13512034157713 ], [ 116.083355285890576, 3.13512034157713 ], [ 116.083355285890576, 3.134940678520306 ] ] ] } },
{ "type": "Feature", "properties": { "count": 18, "label": 1, "cluster_id": 317 }, "geometry": { "type": "Polygon", "coordinates": [ [ [ 116.083534948947403, 3.139432254940904 ], [ 116.083534948947403, 3.138713602713608 ], [ 116.083894275061041, 3.138713602713608 ], [ 116.083894275061041, 3.13835427659996 ], [ 116.084433264231521, 3.13835427659996 ], [ 116.084433264231521, 3.138713602713608 ], [ 116.084073938117868, 3.138713602713608 ], [ 116.084073938117868, 3.139432254940904 ], [ 116.083534948947403, 3.139432254940904 ] ] ] } },
{ "type": "Feature", "properties": { "count": 4, "label": 1, "cluster_id": 317 }, "geometry": { "type": "Polygon", "coordinates": [ [ [ 116.086229894799757, 3.123981232054048 ], [ 116.086589220913396, 3.123981232054048 ], [ 116.086589220913396, 3.124340558167696 ], [ 116.086229894799757, 3.124340558167696 ], [ 116.086229894799757, 3.123981232054048 ] ] ] } },
{ "type": "Feature", "properties": { "count": 3, "label": 1, "cluster_id": 317 }, "geometry": { "type": "Polygon", "coordinates": [ [ [ 116.087487536197528, 3.107991219996721 ], [ 116.087667199254341, 3.107991219996721 ], [ 116.087667199254341, 3.108530209167192 ], [ 116.087487536197528, 3.108530209167192 ], [ 116.087487536197528, 3.107991219996721 ] ] ] } },
{ "type": "Feature", "properties": { "count": 12, "label": 1, "cluster_id": 317 }, "geometry": { "type": "Polygon", "coordinates": [ [ [ 116.091260460390828, 3.120028644803922 ], [ 116.091260460390828, 3.118950666462978 ], [ 116.091440123447654, 3.118950666462978 ], [ 116.091440123447654, 3.11948965563345 ], [ 116.091799449561293, 3.11948965563345 ], [ 116.091799449561293, 3.120028644803922 ], [ 116.091260460390828, 3.120028644803922 ] ] ] } },
{ "type": "Feature", "properties": { "count": 27, "label": 1, "cluster_id": 317 }, "geometry": { "type": "Polygon", "coordinates": [ [ [ 116.093416417072717, 3.121286286201689 ], [ 116.093416417072717, 3.120747297031218 ], [ 116.093057090959064, 3.120747297031218 ], [ 116.093057090959064, 3.120208307860746 ], [ 116.093955406243182, 3.120208307860746 ], [ 116.093955406243182, 3.120747297031218 ], [ 116.094135069300009, 3.120747297031218 ], [ 116.094135069300009, 3.121286286201689 ], [ 116.093416417072717, 3.121286286201689 ] ] ] } },
{ "type": "Feature", "properties": { "count": 4, "label": 1, "cluster_id": 317 }, "geometry": { "type": "Polygon", "coordinates": [ [ [ 116.094853721527301, 3.143744168304677 ], [ 116.095213047640954, 3.143744168304677 ], [ 116.095213047640954, 3.144103494418325 ], [ 116.094853721527301, 3.144103494418325 ], [ 116.094853721527301, 3.143744168304677 ] ] ] } },
{ "type": "Feature", "properties": { "count": 6, "label": 1, "cluster_id": 317 }, "geometry": { "type": "Polygon", "coordinates": [ [ [ 116.094674058470474, 3.150571364463986 ], [ 116.095213047640954, 3.150571364463986 ], [ 116.095213047640954, 3.150930690577634 ], [ 116.094674058470474, 3.150930690577634 ], [ 116.094674058470474, 3.150571364463986 ] ] ] } },
{ "type": "Feature", "properties": { "count": 16, "label": 1, "cluster_id": 317 }, "geometry": { "type": "Polygon", "coordinates": [ [ [ 116.095213047640954, 3.143744168304677 ], [ 116.095213047640954, 3.143564505247853 ], [ 116.094853721527301, 3.143564505247853 ], [ 116.094853721527301, 3.143205179134206 ], [ 116.095213047640954, 3.143205179134206 ], [ 116.095213047640954, 3.142666189963734 ], [ 116.09539271069778, 3.142666189963734 ], [ 116.09539271069778, 3.14248652690691 ], [ 116.095752036811419, 3.14248652690691 ], [ 116.095752036811419, 3.143025516077382 ], [ 116.09539271069778, 3.143025516077382 ], [ 116.09539271069778, 3.143744168304677 ], [ 116.095213047640954, 3.143744168304677 ] ] ] } },
{ "type": "Feature", "properties": { "count": 3, "label": 1, "cluster_id": 317 }, "geometry": { "type": "Polygon", "coordinates": [ [ [ 116.094853721527301, 3.152008668918577 ], [ 116.09539271069778, 3.152008668918577 ], [ 116.09539271069778, 3.152188331975401 ], [ 116.094853721527301, 3.152188331975401 ], [ 116.094853721527301, 3.152008668918577 ] ] ] } },
{ "type": "Feature", "properties": { "count": 2, "label": 1, "cluster_id": 317 }, "geometry": { "type": "Polygon", "coordinates": [ [ [ 116.095572373754592, 3.121286286201689 ], [ 116.095752036811419, 3.121286286201689 ], [ 116.095752036811419, 3.121645612315337 ], [ 116.095572373754592, 3.121645612315337 ], [ 116.095572373754592, 3.121286286201689 ] ] ] } },
{ "type": "Feature", "properties": { "count": 1, "label": 1, "cluster_id": 317 }, "geometry": { "type": "Polygon", "coordinates": [ [ [ 116.096111362925072, 3.131706743497476 ], [ 116.096291025981898, 3.131706743497476 ], [ 116.096291025981898, 3.1318864065543 ], [ 116.096111362925072, 3.1318864065543 ], [ 116.096111362925072, 3.131706743497476 ] ] ] } },
{ "type": "Feature", "properties": { "count": 46, "label": 1, "cluster_id": 317 }, "geometry": { "type": "Polygon", "coordinates": [ [ [ 116.095752036811419, 3.153266310316345 ], [ 116.095752036811419, 3.152547658089049 ], [ 116.095931699868245, 3.152547658089049 ], [ 116.095931699868245, 3.152188331975401 ], [ 116.096291025981898, 3.152188331975401 ], [ 116.096291025981898, 3.152008668918577 ], [ 116.096470689038711, 3.152008668918577 ], [ 116.096470689038711, 3.151110353634457 ], [ 116.096291025981898, 3.151110353634457 ], [ 116.096291025981898, 3.150930690577634 ], [ 116.096830015152364, 3.150930690577634 ], [ 116.096830015152364, 3.151110353634457 ], [ 116.09700967820919, 3.151110353634457 ], [ 116.09700967820919, 3.151649342804929 ], [ 116.096830015152364, 3.151649342804929 ], [ 116.096830015152364, 3.152727321145873 ], [ 116.096470689038711, 3.152727321145873 ], [ 116.096470689038711, 3.15308664725952 ], [ 116.096291025981898, 3.15308664725952 ], [ 116.096291025981898, 3.153266310316345 ], [ 116.095752036811419, 3.153266310316345 ] ] ] } },
{ "type": "Feature", "properties": { "count": 12, "label": 1, "cluster_id": 317 }, "geometry": { "type": "Polygon", "coordinates": [ [ [ 116.096830015152364, 3.144642483588797 ], [ 116.096830015152364, 3.143564505247853 ], [ 116.097548667379655, 3.143564505247853 ], [ 116.097548667379655, 3.143923831361501 ], [ 116.09700967820919, 3.143923831361501 ], [ 116.09700967820919, 3.144642483588797 ], [ 116.096830015152364, 3.144642483588797 ] ] ] } },
{ "type": "Feature", "properties": { "count": 9, "label": 1, "cluster_id": 317 }, "geometry": { "type": "Polygon", "coordinates": [ [ [ 116.096830015152364, 3.122903253713104 ], [ 116.096830015152364, 3.122184601485809 ], [ 116.097369004322843, 3.122184601485809 ], [ 116.097369004322843, 3.122364264542633 ], [ 116.097189341266017, 3.122364264542633 ], [ 116.097189341266017, 3.122903253713104 ], [ 116.096830015152364, 3.122903253713104 ] ] ] } },
{ "type": "Feature", "properties": { "count": 2, "label": 1, "cluster_id": 317 }, "geometry": { "type": "Polygon", "coordinates": [ [ [ 116.097369004322843, 3.153805299486816 ], [ 116.097548667379655, 3.153805299486816 ], [ 116.097548667379655, 3.154164625600464 ], [ 116.097369004322843, 3.154164625600464 ], [ 116.097369004322843, 3.153805299486816 ] ] ] } },
{ "type": "Feature", "properties": { "count": 31, "label": 1, "cluster_id": 317 }, "geometry": { "type": "Polygon", "coordinates": [ [ [ 116.097189341266017, 3.097211436587286 ], [ 116.097189341266017, 3.096133458246343 ], [ 116.097369004322843, 3.096133458246343 ], [ 116.097369004322843, 3.095594469075871 ], [ 116.097907993493308, 3.095594469075871 ], [ 116.097907993493308, 3.096852110473638 ], [ 116.097728330436482, 3.096852110473638 ], [ 116.097728330436482, 3.097211436587286 ], [ 116.097189341266017, 3.097211436587286 ] ] ] } },
{ "type": "Feature", "properties": { "count": 22, "label": 1, "cluster_id": 317 }, "geometry": { "type": "Polygon", "coordinates": [ [ [ 116.097369004322843, 3.120567633974394 ], [ 116.097369004322843, 3.120028644803922 ], [ 116.097907993493308, 3.120028644803922 ], [ 116.097907993493308, 3.119669318690274 ], [ 116.098806308777426, 3.119669318690274 ], [ 116.098806308777426, 3.120028644803922 ], [ 116.098446982663773, 3.120028644803922 ], [ 116.098446982663773, 3.120208307860746 ], [ 116.097907993493308, 3.120208307860746 ], [ 116.097907993493308, 3.120567633974394 ], [ 116.097369004322843, 3.120567633974394 ] ] ] } },
{ "type": "Feature", "properties": { "count": 3, "label": 1, "cluster_id": 317 }, "geometry": { "type": "Polygon", "coordinates": [ [ [ 116.097728330436482, 3.128113482360998 ], [ 116.098267319606961, 3.128113482360998 ], [ 116.098267319606961, 3.128293145417822 ], [ 116.097728330436482, 3.128293145417822 ], [ 116.097728330436482, 3.128113482360998 ] ] ] } },
{ "type": "Feature", "properties": { "count": 15, "label": 1, "cluster_id": 317 }, "geometry": { "type": "Polygon", "coordinates": [ [ [ 116.097907993493308, 3.087868957632443 ], [ 116.098806308777426, 3.087868957632443 ], [ 116.098806308777426, 3.088407946802915 ], [ 116.097907993493308, 3.088407946802915 ], [ 116.097907993493308, 3.087868957632443 ] ] ] } },
{ "type": "Feature", "properties": { "count": 1, "label": 1, "cluster_id": 317 }, "geometry": { "type": "Polygon", "coordinates": [ [ [ 116.098806308777426, 3.121106623144866 ], [ 116.098985971834253, 3.121106623144866 ], [ 116.098985971834253, 3.121286286201689 ], [ 116.098806308777426, 3.121286286201689 ], [ 116.098806308777426, 3.121106623144866 ] ] ] } },
{ "type": "Feature", "properties": { "count": 7, "label": 1, "cluster_id": 317 }, "geometry": { "type": "Polygon", "coordinates": [ [ [ 116.098806308777426, 3.129191460701941 ], [ 116.098806308777426, 3.128832134588293 ], [ 116.098446982663773, 3.128832134588293 ], [ 116.098446982663773, 3.12865247153147 ], [ 116.099345297947906, 3.12865247153147 ], [ 116.099345297947906, 3.128832134588293 ], [ 116.098985971834253, 3.128832134588293 ], [ 116.098985971834253, 3.129191460701941 ], [ 116.098806308777426, 3.129191460701941 ] ] ] } },
{ "type": "Feature", "properties": { "count": 9, "label": 1, "cluster_id": 317 }, "geometry": { "type": "Polygon", "coordinates": [ [ [ 116.098446982663773, 3.132425395724772 ], [ 116.098985971834253, 3.132425395724772 ], [ 116.098985971834253, 3.132964384895243 ], [ 116.098446982663773, 3.132964384895243 ], [ 116.098446982663773, 3.132425395724772 ] ] ] } },
{ "type": "Feature", "properties": { "count": 6, "label": 1, "cluster_id": 317 }, "geometry": { "type": "Polygon", "coordinates": [ [ [ 116.098985971834253, 3.120567633974394 ], [ 116.099345297947906, 3.120567633974394 ], [ 116.099345297947906, 3.121106623144866 ], [ 116.098985971834253, 3.121106623144866 ], [ 116.098985971834253, 3.120567633974394 ] ] ] } },
{ "type": "Feature", "properties": { "count": 2, "label": 1, "cluster_id": 317 }, "geometry": { "type": "Polygon", "coordinates": [ [ [ 116.099345297947906, 3.120208307860746 ], [ 116.099524961004718, 3.120208307860746 ], [ 116.099524961004718, 3.120567633974394 ], [ 116.099345297947906, 3.120567633974394 ], [ 116.099345297947906, 3.120208307860746 ] ] ] } },
{ "type": "Feature", "properties": { "count": 18, "label": 1, "cluster_id": 317 }, "geometry": { "type": "Polygon", "coordinates": [ [ [ 116.098985971834253, 3.121645612315337 ], [ 116.098985971834253, 3.121286286201689 ], [ 116.099345297947906, 3.121286286201689 ], [ 116.099345297947906, 3.121106623144866 ], [ 116.099884287118371, 3.121106623144866 ], [ 116.099884287118371, 3.120747297031218 ], [ 116.100602939345663, 3.120747297031218 ], [ 116.100602939345663, 3.121106623144866 ], [ 116.100063950175198, 3.121106623144866 ], [ 116.100063950175198, 3.121286286201689 ], [ 116.099524961004718, 3.121286286201689 ], [ 116.099524961004718, 3.121645612315337 ], [ 116.098985971834253, 3.121645612315337 ] ] ] } },
{ "type": "Feature", "properties": { "count": 1, "label": 1, "cluster_id": 317 }, "geometry": { "type": "Polygon", "coordinates": [ [ [ 116.099884287118371, 3.091821544882569 ], [ 116.100063950175198, 3.091821544882569 ], [ 116.100063950175198, 3.092001207939393 ], [ 116.099884287118371, 3.092001207939393 ], [ 116.099884287118371, 3.091821544882569 ] ] ] } },
{ "type": "Feature", "properties": { "count": 11, "label": 1, "cluster_id": 317 }, "geometry": { "type": "Polygon", "coordinates": [ [ [ 116.099524961004718, 3.102062339121531 ], [ 116.099524961004718, 3.10152334995106 ], [ 116.099884287118371, 3.10152334995106 ], [ 116.099884287118371, 3.101164023837412 ], [ 116.100063950175198, 3.101164023837412 ], [ 116.100063950175198, 3.102062339121531 ], [ 116.099524961004718, 3.102062339121531 ] ] ] } },
{ "type": "Feature", "properties": { "count": 6, "label": 1, "cluster_id": 317 }, "geometry": { "type": "Polygon", "coordinates": [ [ [ 116.100063950175198, 3.09002491431433 ], [ 116.100423276288836, 3.09002491431433 ], [ 116.100423276288836, 3.090563903484802 ], [ 116.100063950175198, 3.090563903484802 ], [ 116.100063950175198, 3.09002491431433 ] ] ] } },
{ "type": "Feature", "properties": { "count": 8, "label": 1, "cluster_id": 317 }, "geometry": { "type": "Polygon", "coordinates": [ [ [ 116.100063950175198, 3.091102892655273 ], [ 116.100423276288836, 3.091102892655273 ], [ 116.100423276288836, 3.091821544882569 ], [ 116.100063950175198, 3.091821544882569 ], [ 116.100063950175198, 3.091102892655273 ] ] ] } },
{ "type": "Feature", "properties": { "count": 2, "label": 1, "cluster_id": 317 }, "geometry": { "type": "Polygon", "coordinates": [ [ [ 116.100063950175198, 3.100984360780588 ], [ 116.100423276288836, 3.100984360780588 ], [ 116.100423276288836, 3.101164023837412 ], [ 116.100063950175198, 3.101164023837412 ], [ 116.100063950175198, 3.100984360780588 ] ] ] } },
{ "type": "Feature", "properties": { "count": 60, "label": 1, "cluster_id": 317 }, "geometry": { "type": "Polygon", "coordinates": [ [ [ 116.100063950175198, 3.104218295803419 ], [ 116.100063950175198, 3.102780991348827 ], [ 116.100962265459316, 3.102780991348827 ], [ 116.100962265459316, 3.103140317462475 ], [ 116.101141928516142, 3.103140317462475 ], [ 116.101141928516142, 3.102780991348827 ], [ 116.101501254629781, 3.102780991348827 ], [ 116.101501254629781, 3.102601328292003 ], [ 116.102040243800261, 3.102601328292003 ], [ 116.102040243800261, 3.102242002178356 ], [ 116.102219906857087, 3.102242002178356 ], [ 116.102219906857087, 3.103140317462475 ], [ 116.102040243800261, 3.103140317462475 ], [ 116.102040243800261, 3.103319980519299 ], [ 116.101141928516142, 3.103319980519299 ], [ 116.101141928516142, 3.103679306632947 ], [ 116.100962265459316, 3.103679306632947 ], [ 116.100962265459316, 3.10385896968977 ], [ 116.100423276288836, 3.10385896968977 ], [ 116.100423276288836, 3.104218295803419 ], [ 116.100063950175198, 3.104218295803419 ] ] ] } },
{ "type": "Feature", "properties": { "count": 3, "label": 1, "cluster_id": 317 }, "geometry": { "type": "Polygon", "coordinates": [ [ [ 116.100063950175198, 3.113201448644614 ], [ 116.100602939345663, 3.113201448644614 ], [ 116.100602939345663, 3.113381111701437 ], [ 116.100063950175198, 3.113381111701437 ], [ 116.100063950175198, 3.113201448644614 ] ] ] } },
{ "type": "Feature", "properties": { "count": 26, "label": 1, "cluster_id": 317 }, "geometry": { "type": "Polygon", "coordinates": [ [ [ 116.100602939345663, 3.122184601485809 ], [ 116.100602939345663, 3.121825275372161 ], [ 116.100962265459316, 3.121825275372161 ], [ 116.100962265459316, 3.121286286201689 ], [ 116.102219906857087, 3.121286286201689 ], [ 116.102219906857087, 3.121645612315337 ], [ 116.102040243800261, 3.121645612315337 ], [ 116.102040243800261, 3.121825275372161 ], [ 116.101141928516142, 3.121825275372161 ], [ 116.101141928516142, 3.122184601485809 ], [ 116.100602939345663, 3.122184601485809 ] ] ] } },
{ "type": "Feature", "properties": { "count": 33, "label": 1, "cluster_id": 317 }, "geometry": { "type": "Polygon", "coordinates": [ [ [ 116.100423276288836, 3.130269439042884 ], [ 116.100423276288836, 3.129910112929237 ], [ 116.100063950175198, 3.129910112929237 ], [ 116.100063950175198, 3.129371123758765 ], [ 116.099884287118371, 3.129371123758765 ], [ 116.099884287118371, 3.129191460701941 ], [ 116.099524961004718, 3.129191460701941 ], [ 116.099524961004718, 3.128832134588293 ], [ 116.100423276288836, 3.128832134588293 ], [ 116.100423276288836, 3.12865247153147 ], [ 116.100602939345663, 3.12865247153147 ], [ 116.100602939345663, 3.129371123758765 ], [ 116.100423276288836, 3.129371123758765 ], [ 116.100423276288836, 3.129730449872413 ], [ 116.100602939345663, 3.129730449872413 ], [ 116.100602939345663, 3.129910112929237 ], [ 116.100962265459316, 3.129910112929237 ], [ 116.100962265459316, 3.129730449872413 ], [ 116.101141928516142, 3.129730449872413 ], [ 116.101141928516142, 3.130269439042884 ], [ 116.100423276288836, 3.130269439042884 ] ] ] } },
{ "type": "Feature", "properties": { "count": 4, "label": 1, "cluster_id": 317 }, "geometry": { "type": "Polygon", "coordinates": [ [ [ 116.101141928516142, 3.129371123758765 ], [ 116.101501254629781, 3.129371123758765 ], [ 116.101501254629781, 3.129730449872413 ], [ 116.101141928516142, 3.129730449872413 ], [ 116.101141928516142, 3.129371123758765 ] ] ] } },
{ "type": "Feature", "properties": { "count": 2, "label": 1, "cluster_id": 317 }, "geometry": { "type": "Polygon", "coordinates": [ [ [ 116.102040243800261, 3.10385896968977 ], [ 116.102219906857087, 3.10385896968977 ], [ 116.102219906857087, 3.104218295803419 ], [ 116.102040243800261, 3.104218295803419 ], [ 116.102040243800261, 3.10385896968977 ] ] ] } },
{ "type": "Feature", "properties": { "count": 14, "label": 1, "cluster_id": 317 }, "geometry": { "type": "Polygon", "coordinates": [ [ [ 116.102219906857087, 3.114818416156029 ], [ 116.102219906857087, 3.114459090042381 ], [ 116.102040243800261, 3.114459090042381 ], [ 116.102040243800261, 3.114279426985557 ], [ 116.102219906857087, 3.114279426985557 ], [ 116.102219906857087, 3.113920100871909 ], [ 116.102758896027552, 3.113920100871909 ], [ 116.102758896027552, 3.114459090042381 ], [ 116.102579232970726, 3.114459090042381 ], [ 116.102579232970726, 3.114818416156029 ], [ 116.102219906857087, 3.114818416156029 ] ] ] } },
{ "type": "Feature", "properties": { "count": 2, "label": 1, "cluster_id": 317 }, "geometry": { "type": "Polygon", "coordinates": [ [ [ 116.102219906857087, 3.121106623144866 ], [ 116.102579232970726, 3.121106623144866 ], [ 116.102579232970726, 3.121286286201689 ], [ 116.102219906857087, 3.121286286201689 ], [ 116.102219906857087, 3.121106623144866 ] ] ] } },
{ "type": "Feature", "properties": { "count": 4, "label": 1, "cluster_id": 317 }, "geometry": { "type": "Polygon", "coordinates": [ [ [ 116.102219906857087, 3.123442242883576 ], [ 116.102579232970726, 3.123442242883576 ], [ 116.102579232970726, 3.123801568997224 ], [ 116.102219906857087, 3.123801568997224 ], [ 116.102219906857087, 3.123442242883576 ] ] ] } },
{ "type": "Feature", "properties": { "count": 1, "label": 1, "cluster_id": 317 }, "geometry": { "type": "Polygon", "coordinates": [ [ [ 116.102579232970726, 3.104577621917066 ], [ 116.102758896027552, 3.104577621917066 ], [ 116.102758896027552, 3.10475728497389 ], [ 116.102579232970726, 3.10475728497389 ], [ 116.102579232970726, 3.104577621917066 ] ] ] } },
{ "type": "Feature", "properties": { "count": 4, "label": 1, "cluster_id": 317 }, "geometry": { "type": "Polygon", "coordinates": [ [ [ 116.102758896027552, 3.104218295803419 ], [ 116.103118222141205, 3.104218295803419 ], [ 116.103118222141205, 3.104577621917066 ], [ 116.102758896027552, 3.104577621917066 ], [ 116.102758896027552, 3.104218295803419 ] ] ] } },
{ "type": "Feature", "properties": { "count": 12, "label": 1, "cluster_id": 317 }, "geometry": { "type": "Polygon", "coordinates": [ [ [ 116.102579232970726, 3.10565560025801 ], [ 116.102579232970726, 3.105296274144362 ], [ 116.102758896027552, 3.105296274144362 ], [ 116.102758896027552, 3.10475728497389 ], [ 116.103118222141205, 3.10475728497389 ], [ 116.103118222141205, 3.10565560025801 ], [ 116.102579232970726, 3.10565560025801 ] ] ] } },
{ "type": "Feature", "properties": { "count": 106, "label": 1, "cluster_id": 317 }, "geometry": { "type": "Polygon", "coordinates": [ [ [ 116.103297885198032, 3.121286286201689 ], [ 116.103297885198032, 3.120747297031218 ], [ 116.102758896027552, 3.120747297031218 ], [ 116.102758896027552, 3.120208307860746 ], [ 116.103297885198032, 3.120208307860746 ], [ 116.103297885198032, 3.119669318690274 ], [ 116.103118222141205, 3.119669318690274 ], [ 116.103118222141205, 3.11948965563345 ], [ 116.102758896027552, 3.11948965563345 ], [ 116.102758896027552, 3.118411677292507 ], [ 116.103118222141205, 3.118411677292507 ], [ 116.103118222141205, 3.118591340349331 ], [ 116.10419620048215, 3.118591340349331 ], [ 116.10419620048215, 3.118950666462978 ], [ 116.104375863538962, 3.118950666462978 ], [ 116.104375863538962, 3.119669318690274 ], [ 116.104735189652615, 3.119669318690274 ], [ 116.104735189652615, 3.120208307860746 ], [ 116.10419620048215, 3.120208307860746 ], [ 116.10419620048215, 3.120567633974394 ], [ 116.103836874368497, 3.120567633974394 ], [ 116.103836874368497, 3.121106623144866 ], [ 116.10365721131167, 3.121106623144866 ], [ 116.10365721131167, 3.121286286201689 ], [ 116.103297885198032, 3.121286286201689 ] ] ] } },
{ "type": "Feature", "properties": { "count": 58, "label": 1, "cluster_id": 317 }, "geometry": { "type": "Polygon", "coordinates": [ [ [ 116.104735189652615, 3.100984360780588 ], [ 116.104735189652615, 3.100086045496468 ], [ 116.105274178823095, 3.100086045496468 ], [ 116.105274178823095, 3.099547056325997 ], [ 116.10581316799356, 3.099547056325997 ], [ 116.10581316799356, 3.099367393269173 ], [ 116.105992831050386, 3.099367393269173 ], [ 116.105992831050386, 3.099008067155525 ], [ 116.106352157164025, 3.099008067155525 ], [ 116.106352157164025, 3.099547056325997 ], [ 116.106891146334505, 3.099547056325997 ], [ 116.106891146334505, 3.100086045496468 ], [ 116.105992831050386, 3.100086045496468 ], [ 116.105992831050386, 3.100445371610117 ], [ 116.105453841879907, 3.100445371610117 ], [ 116.105453841879907, 3.10062503466694 ], [ 116.105274178823095, 3.10062503466694 ], [ 116.105274178823095, 3.100984360780588 ], [ 116.104735189652615, 3.100984360780588 ] ] ] } },
{ "type": "Feature", "properties": { "count": 7, "label": 1, "cluster_id": 317 }, "geometry": { "type": "Polygon", "coordinates": [ [ [ 116.105274178823095, 3.129371123758765 ], [ 116.105274178823095, 3.129191460701941 ], [ 116.105453841879907, 3.129191460701941 ], [ 116.105453841879907, 3.128832134588293 ], [ 116.10581316799356, 3.128832134588293 ], [ 116.10581316799356, 3.129371123758765 ], [ 116.105274178823095, 3.129371123758765 ] ] ] } },
{ "type": "Feature", "properties": { "count": 25, "label": 1, "cluster_id": 317 }, "geometry": { "type": "Polygon", "coordinates": [ [ [ 116.109586092186859, 3.101703013007884 ], [ 116.109586092186859, 3.10152334995106 ], [ 116.10922676607322, 3.10152334995106 ], [ 116.10922676607322, 3.100086045496468 ], [ 116.109586092186859, 3.100086045496468 ], [ 116.109586092186859, 3.100445371610117 ], [ 116.109765755243686, 3.100445371610117 ], [ 116.109765755243686, 3.10152334995106 ], [ 116.110125081357339, 3.10152334995106 ], [ 116.110125081357339, 3.101703013007884 ], [ 116.109586092186859, 3.101703013007884 ] ] ] } },
{ "type": "Feature", "properties": { "count": 1, "label": 1, "cluster_id": 317 }, "geometry": { "type": "Polygon", "coordinates": [ [ [ 116.111742048868749, 3.107272567769425 ], [ 116.111921711925575, 3.107272567769425 ], [ 116.111921711925575, 3.107452230826249 ], [ 116.111742048868749, 3.107452230826249 ], [ 116.111742048868749, 3.107272567769425 ] ] ] } },
{ "type": "Feature", "properties": { "count": 10, "label": 1, "cluster_id": 317 }, "geometry": { "type": "Polygon", "coordinates": [ [ [ 116.111921711925575, 3.101164023837412 ], [ 116.112281038039228, 3.101164023837412 ], [ 116.112281038039228, 3.102062339121531 ], [ 116.111921711925575, 3.102062339121531 ], [ 116.111921711925575, 3.101164023837412 ] ] ] } },
{ "type": "Feature", "properties": { "count": 40, "label": 1, "cluster_id": 317 }, "geometry": { "type": "Polygon", "coordinates": [ [ [ 116.111742048868749, 3.127215167076878 ], [ 116.111742048868749, 3.126676177906406 ], [ 116.111203059698283, 3.126676177906406 ], [ 116.111203059698283, 3.125957525679111 ], [ 116.111382722755096, 3.125957525679111 ], [ 116.111382722755096, 3.125598199565463 ], [ 116.11246070109604, 3.125598199565463 ], [ 116.11246070109604, 3.126137188735935 ], [ 116.112281038039228, 3.126137188735935 ], [ 116.112281038039228, 3.126496514849582 ], [ 116.111921711925575, 3.126496514849582 ], [ 116.111921711925575, 3.127035504020054 ], [ 116.112281038039228, 3.127035504020054 ], [ 116.112281038039228, 3.127215167076878 ], [ 116.111742048868749, 3.127215167076878 ] ] ] } },
{ "type": "Feature", "properties": { "count": 7, "label": 1, "cluster_id": 317 }, "geometry": { "type": "Polygon", "coordinates": [ [ [ 116.111921711925575, 3.096313121303166 ], [ 116.111921711925575, 3.095774132132695 ], [ 116.112281038039228, 3.095774132132695 ], [ 116.112281038039228, 3.096133458246343 ], [ 116.11246070109604, 3.096133458246343 ], [ 116.11246070109604, 3.096313121303166 ], [ 116.111921711925575, 3.096313121303166 ] ] ] } },
{ "type": "Feature", "properties": { "count": 3, "label": 1, "cluster_id": 317 }, "geometry": { "type": "Polygon", "coordinates": [ [ [ 116.111921711925575, 3.107811556939896 ], [ 116.11246070109604, 3.107811556939896 ], [ 116.11246070109604, 3.107991219996721 ], [ 116.111921711925575, 3.107991219996721 ], [ 116.111921711925575, 3.107811556939896 ] ] ] } },
{ "type": "Feature", "properties": { "count": 8, "label": 1, "cluster_id": 317 }, "geometry": { "type": "Polygon", "coordinates": [ [ [ 116.112820027209693, 3.099547056325997 ], [ 116.112820027209693, 3.098469077985054 ], [ 116.11299969026652, 3.098469077985054 ], [ 116.11299969026652, 3.099367393269173 ], [ 116.113359016380159, 3.099367393269173 ], [ 116.113359016380159, 3.099547056325997 ], [ 116.112820027209693, 3.099547056325997 ] ] ] } },
{ "type": "Feature", "properties": { "count": 7, "label": 1, "cluster_id": 317 }, "geometry": { "type": "Polygon", "coordinates": [ [ [ 116.112820027209693, 3.108530209167192 ], [ 116.112820027209693, 3.108350546110368 ], [ 116.11299969026652, 3.108350546110368 ], [ 116.11299969026652, 3.107991219996721 ], [ 116.113359016380159, 3.107991219996721 ], [ 116.113359016380159, 3.108530209167192 ], [ 116.112820027209693, 3.108530209167192 ] ] ] } },
{ "type": "Feature", "properties": { "count": 3, "label": 1, "cluster_id": 317 }, "geometry": { "type": "Polygon", "coordinates": [ [ [ 116.113359016380159, 3.103140317462475 ], [ 116.113538679436985, 3.103140317462475 ], [ 116.113538679436985, 3.103679306632947 ], [ 116.113359016380159, 3.103679306632947 ], [ 116.113359016380159, 3.103140317462475 ] ] ] } },
{ "type": "Feature", "properties": { "count": 10, "label": 1, "cluster_id": 317 }, "geometry": { "type": "Polygon", "coordinates": [ [ [ 116.11299969026652, 3.113740437815085 ], [ 116.11299969026652, 3.113381111701437 ], [ 116.112820027209693, 3.113381111701437 ], [ 116.112820027209693, 3.113201448644614 ], [ 116.113538679436985, 3.113201448644614 ], [ 116.113538679436985, 3.113740437815085 ], [ 116.11299969026652, 3.113740437815085 ] ] ] } },
{ "type": "Feature", "properties": { "count": 60, "label": 1, "cluster_id": 317 }, "geometry": { "type": "Polygon", "coordinates": [ [ [ 116.11246070109604, 3.123981232054048 ], [ 116.11246070109604, 3.122903253713104 ], [ 116.113359016380159, 3.122903253713104 ], [ 116.113359016380159, 3.12272359065628 ], [ 116.113898005550638, 3.12272359065628 ], [ 116.113898005550638, 3.122364264542633 ], [ 116.114436994721103, 3.122364264542633 ], [ 116.114436994721103, 3.122903253713104 ], [ 116.114077668607464, 3.122903253713104 ], [ 116.114077668607464, 3.123262579826752 ], [ 116.113898005550638, 3.123262579826752 ], [ 116.113898005550638, 3.123801568997224 ], [ 116.113538679436985, 3.123801568997224 ], [ 116.113538679436985, 3.123981232054048 ], [ 116.11246070109604, 3.123981232054048 ] ] ] } },
{ "type": "Feature", "properties": { "count": 2, "label": 1, "cluster_id": 317 }, "geometry": { "type": "Polygon", "coordinates": [ [ [ 116.113359016380159, 3.12452022122452 ], [ 116.113538679436985, 3.12452022122452 ], [ 116.113538679436985, 3.124879547338168 ], [ 116.113359016380159, 3.124879547338168 ], [ 116.113359016380159, 3.12452022122452 ] ] ] } },
{ "type": "Feature", "properties": { "count": 4, "label": 1, "cluster_id": 317 }, "geometry": { "type": "Polygon", "coordinates": [ [ [ 116.113538679436985, 3.102780991348827 ], [ 116.113898005550638, 3.102780991348827 ], [ 116.113898005550638, 3.103140317462475 ], [ 116.113538679436985, 3.103140317462475 ], [ 116.113538679436985, 3.102780991348827 ] ] ] } },
{ "type": "Feature", "properties": { "count": 2, "label": 1, "cluster_id": 317 }, "geometry": { "type": "Polygon", "coordinates": [ [ [ 116.113538679436985, 3.163686767612131 ], [ 116.113898005550638, 3.163686767612131 ], [ 116.113898005550638, 3.163866430668955 ], [ 116.113538679436985, 3.163866430668955 ], [ 116.113538679436985, 3.163686767612131 ] ] ] } },
{ "type": "Feature", "properties": { "count": 4, "label": 1, "cluster_id": 317 }, "geometry": { "type": "Polygon", "coordinates": [ [ [ 116.11461665777793, 3.09415716462128 ], [ 116.114975983891583, 3.09415716462128 ], [ 116.114975983891583, 3.094516490734927 ], [ 116.11461665777793, 3.094516490734927 ], [ 116.11461665777793, 3.09415716462128 ] ] ] } },
{ "type": "Feature", "properties": { "count": 3, "label": 1, "cluster_id": 317 }, "geometry": { "type": "Polygon", "coordinates": [ [ [ 116.114436994721103, 3.116794709781092 ], [ 116.114975983891583, 3.116794709781092 ], [ 116.114975983891583, 3.116974372837916 ], [ 116.114436994721103, 3.116974372837916 ], [ 116.114436994721103, 3.116794709781092 ] ] ] } },
{ "type": "Feature", "properties": { "count": 7, "label": 1, "cluster_id": 317 }, "geometry": { "type": "Polygon", "coordinates": [ [ [ 116.11461665777793, 3.10062503466694 ], [ 116.11461665777793, 3.100086045496468 ], [ 116.114975983891583, 3.100086045496468 ], [ 116.114975983891583, 3.100445371610117 ], [ 116.115155646948409, 3.100445371610117 ], [ 116.115155646948409, 3.10062503466694 ], [ 116.11461665777793, 3.10062503466694 ] ] ] } },
{ "type": "Feature", "properties": { "count": 138, "label": 1, "cluster_id": 317 }, "geometry": { "type": "Polygon", "coordinates": [ [ [ 116.114975983891583, 3.129011797645117 ], [ 116.114975983891583, 3.128113482360998 ], [ 116.11461665777793, 3.128113482360998 ], [ 116.11461665777793, 3.12775415624735 ], [ 116.114436994721103, 3.12775415624735 ], [ 116.114436994721103, 3.127574493190526 ], [ 116.114077668607464, 3.127574493190526 ], [ 116.114077668607464, 3.12865247153147 ], [ 116.11461665777793, 3.12865247153147 ], [ 116.11461665777793, 3.129011797645117 ], [ 116.113898005550638, 3.129011797645117 ], [ 116.113898005550638, 3.12865247153147 ], [ 116.113538679436985, 3.12865247153147 ], [ 116.113538679436985, 3.128293145417822 ], [ 116.113359016380159, 3.128293145417822 ], [ 116.113359016380159, 3.128113482360998 ], [ 116.11299969026652, 3.128113482360998 ], [ 116.11299969026652, 3.12775415624735 ], [ 116.11246070109604, 3.12775415624735 ], [ 116.11246070109604, 3.127574493190526 ], [ 116.112820027209693, 3.127574493190526 ], [ 116.112820027209693, 3.127215167076878 ], [ 116.11299969026652, 3.127215167076878 ], [ 116.11299969026652, 3.126676177906406 ], [ 116.113538679436985, 3.126676177906406 ], [ 116.113538679436985, 3.126496514849582 ], [ 116.114436994721103, 3.126496514849582 ], [ 116.114436994721103, 3.126137188735935 ], [ 116.114975983891583, 3.126137188735935 ], [ 116.114975983891583, 3.126496514849582 ], [ 116.115694636118874, 3.126496514849582 ], [ 116.115694636118874, 3.126676177906406 ], [ 116.115514973062048, 3.126676177906406 ], [ 116.115514973062048, 3.127035504020054 ], [ 116.114975983891583, 3.127035504020054 ], [ 116.114975983891583, 3.127215167076878 ], [ 116.115155646948409, 3.127215167076878 ], [ 116.115155646948409, 3.128293145417822 ], [ 116.115514973062048, 3.128293145417822 ], [ 116.115514973062048, 3.12865247153147 ], [ 116.115155646948409, 3.12865247153147 ], [ 116.115155646948409, 3.129011797645117 ], [ 116.114975983891583, 3.129011797645117 ] ], [ [ 116.113538679436985, 3.12775415624735 ], [ 116.113359016380159, 3.12775415624735 ], [ 116.113359016380159, 3.127215167076878 ], [ 116.113538679436985, 3.127215167076878 ], [ 116.113538679436985, 3.12775415624735 ] ] ] } },
{ "type": "Feature", "properties": { "count": 4, "label": 1, "cluster_id": 317 }, "geometry": { "type": "Polygon", "coordinates": [ [ [ 116.115155646948409, 3.118052351178859 ], [ 116.115514973062048, 3.118052351178859 ], [ 116.115514973062048, 3.118411677292507 ], [ 116.115155646948409, 3.118411677292507 ], [ 116.115155646948409, 3.118052351178859 ] ] ] } },
{ "type": "Feature", "properties": { "count": 71, "label": 1, "cluster_id": 317 }, "geometry": { "type": "Polygon", "coordinates": [ [ [ 116.11461665777793, 3.125059210394991 ], [ 116.11461665777793, 3.124879547338168 ], [ 116.114077668607464, 3.124879547338168 ], [ 116.114077668607464, 3.125059210394991 ], [ 116.113898005550638, 3.125059210394991 ], [ 116.113898005550638, 3.123981232054048 ], [ 116.114077668607464, 3.123981232054048 ], [ 116.114077668607464, 3.123801568997224 ], [ 116.114975983891583, 3.123801568997224 ], [ 116.114975983891583, 3.123981232054048 ], [ 116.115155646948409, 3.123981232054048 ], [ 116.115155646948409, 3.123442242883576 ], [ 116.115694636118874, 3.123442242883576 ], [ 116.115694636118874, 3.125059210394991 ], [ 116.11461665777793, 3.125059210394991 ] ] ] } },
{ "type": "Feature", "properties": { "count": 4, "label": 1, "cluster_id": 317 }, "geometry": { "type": "Polygon", "coordinates": [ [ [ 116.115694636118874, 3.102242002178356 ], [ 116.116053962232527, 3.102242002178356 ], [ 116.116053962232527, 3.102601328292003 ], [ 116.115694636118874, 3.102601328292003 ], [ 116.115694636118874, 3.102242002178356 ] ] ] } },
{ "type": "Feature", "properties": { "count": 8, "label": 1, "cluster_id": 317 }, "geometry": { "type": "Polygon", "coordinates": [ [ [ 116.115694636118874, 3.122903253713104 ], [ 116.115694636118874, 3.12272359065628 ], [ 116.115514973062048, 3.12272359065628 ], [ 116.115514973062048, 3.122364264542633 ], [ 116.116053962232527, 3.122364264542633 ], [ 116.116053962232527, 3.122903253713104 ], [ 116.115694636118874, 3.122903253713104 ] ] ] } },
{ "type": "Feature", "properties": { "count": 2, "label": 1, "cluster_id": 317 }, "geometry": { "type": "Polygon", "coordinates": [ [ [ 116.116233625289354, 3.11212347030367 ], [ 116.116592951402993, 3.11212347030367 ], [ 116.116592951402993, 3.112303133360494 ], [ 116.116233625289354, 3.112303133360494 ], [ 116.116233625289354, 3.11212347030367 ] ] ] } },
{ "type": "Feature", "properties": { "count": 6, "label": 1, "cluster_id": 317 }, "geometry": { "type": "Polygon", "coordinates": [ [ [ 116.116233625289354, 3.113201448644614 ], [ 116.116592951402993, 3.113201448644614 ], [ 116.116592951402993, 3.113740437815085 ], [ 116.116233625289354, 3.113740437815085 ], [ 116.116233625289354, 3.113201448644614 ] ] ] } },
{ "type": "Feature", "properties": { "count": 12, "label": 1, "cluster_id": 317 }, "geometry": { "type": "Polygon", "coordinates": [ [ [ 116.116053962232527, 3.099367393269173 ], [ 116.116772614459819, 3.099367393269173 ], [ 116.116772614459819, 3.099906382439645 ], [ 116.116053962232527, 3.099906382439645 ], [ 116.116053962232527, 3.099367393269173 ] ] ] } },
{ "type": "Feature", "properties": { "count": 4, "label": 1, "cluster_id": 317 }, "geometry": { "type": "Polygon", "coordinates": [ [ [ 116.116592951402993, 3.106733578598953 ], [ 116.116772614459819, 3.106733578598953 ], [ 116.116772614459819, 3.107452230826249 ], [ 116.116592951402993, 3.107452230826249 ], [ 116.116592951402993, 3.106733578598953 ] ] ] } },
{ "type": "Feature", "properties": { "count": 3, "label": 1, "cluster_id": 317 }, "geometry": { "type": "Polygon", "coordinates": [ [ [ 116.116592951402993, 3.111584481133198 ], [ 116.116772614459819, 3.111584481133198 ], [ 116.116772614459819, 3.11212347030367 ], [ 116.116592951402993, 3.11212347030367 ], [ 116.116592951402993, 3.111584481133198 ] ] ] } },
{ "type": "Feature", "properties": { "count": 68, "label": 1, "cluster_id": 317 }, "geometry": { "type": "Polygon", "coordinates": [ [ [ 116.115694636118874, 3.129191460701941 ], [ 116.115694636118874, 3.129011797645117 ], [ 116.115514973062048, 3.129011797645117 ], [ 116.115514973062048, 3.12865247153147 ], [ 116.115694636118874, 3.12865247153147 ], [ 116.115694636118874, 3.128293145417822 ], [ 116.116053962232527, 3.128293145417822 ], [ 116.116053962232527, 3.12865247153147 ], [ 116.116592951402993, 3.12865247153147 ], [ 116.116592951402993, 3.128113482360998 ], [ 116.115694636118874, 3.128113482360998 ], [ 116.115694636118874, 3.127574493190526 ], [ 116.116053962232527, 3.127574493190526 ], [ 116.116053962232527, 3.127215167076878 ], [ 116.116592951402993, 3.127215167076878 ], [ 116.116592951402993, 3.127574493190526 ], [ 116.116772614459819, 3.127574493190526 ], [ 116.116772614459819, 3.12775415624735 ], [ 116.117131940573472, 3.12775415624735 ], [ 116.117131940573472, 3.128113482360998 ], [ 116.117311603630284, 3.128113482360998 ], [ 116.117311603630284, 3.12865247153147 ], [ 116.117131940573472, 3.12865247153147 ], [ 116.117131940573472, 3.129011797645117 ], [ 116.116772614459819, 3.129011797645117 ], [ 116.116772614459819, 3.129191460701941 ], [ 116.115694636118874, 3.129191460701941 ] ] ] } },
{ "type": "Feature", "properties": { "count": 2, "label": 1, "cluster_id": 317 }, "geometry": { "type": "Polygon", "coordinates": [ [ [ 116.116772614459819, 3.113740437815085 ], [ 116.117131940573472, 3.113740437815085 ], [ 116.117131940573472, 3.113920100871909 ], [ 116.116772614459819, 3.113920100871909 ], [ 116.116772614459819, 3.113740437815085 ] ] ] } },
{ "type": "Feature", "properties": { "count": 2, "label": 1, "cluster_id": 317 }, "geometry": { "type": "Polygon", "coordinates": [ [ [ 116.117131940573472, 3.113920100871909 ], [ 116.117311603630284, 3.113920100871909 ], [ 116.117311603630284, 3.114279426985557 ], [ 116.117131940573472, 3.114279426985557 ], [ 116.117131940573472, 3.113920100871909 ] ] ] } },
{ "type": "Feature", "properties": { "count": 3, "label": 1, "cluster_id": 317 }, "geometry": { "type": "Polygon", "coordinates": [ [ [ 116.117131940573472, 3.11212347030367 ], [ 116.117670929743937, 3.11212347030367 ], [ 116.117670929743937, 3.112303133360494 ], [ 116.117131940573472, 3.112303133360494 ], [ 116.117131940573472, 3.11212347030367 ] ] ] } },
{ "type": "Feature", "properties": { "count": 3, "label": 1, "cluster_id": 317 }, "geometry": { "type": "Polygon", "coordinates": [ [ [ 116.117670929743937, 3.114459090042381 ], [ 116.117850592800764, 3.114459090042381 ], [ 116.117850592800764, 3.114998079212853 ], [ 116.117670929743937, 3.114998079212853 ], [ 116.117670929743937, 3.114459090042381 ] ] ] } },
{ "type": "Feature", "properties": { "count": 2, "label": 1, "cluster_id": 317 }, "geometry": { "type": "Polygon", "coordinates": [ [ [ 116.117850592800764, 3.114279426985557 ], [ 116.118209918914417, 3.114279426985557 ], [ 116.118209918914417, 3.114459090042381 ], [ 116.117850592800764, 3.114459090042381 ], [ 116.117850592800764, 3.114279426985557 ] ] ] } },
{ "type": "Feature", "properties": { "count": 2, "label": 1, "cluster_id": 317 }, "geometry": { "type": "Polygon", "coordinates": [ [ [ 116.118209918914417, 3.114459090042381 ], [ 116.118389581971229, 3.114459090042381 ], [ 116.118389581971229, 3.114818416156029 ], [ 116.118209918914417, 3.114818416156029 ], [ 116.118209918914417, 3.114459090042381 ] ] ] } },
{ "type": "Feature", "properties": { "count": 37, "label": 1, "cluster_id": 317 }, "geometry": { "type": "Polygon", "coordinates": [ [ [ 116.118209918914417, 3.109967513621783 ], [ 116.118209918914417, 3.109428524451312 ], [ 116.117850592800764, 3.109428524451312 ], [ 116.117850592800764, 3.109069198337664 ], [ 116.117670929743937, 3.109069198337664 ], [ 116.117670929743937, 3.10888953528084 ], [ 116.117131940573472, 3.10888953528084 ], [ 116.117131940573472, 3.108350546110368 ], [ 116.116772614459819, 3.108350546110368 ], [ 116.116772614459819, 3.107811556939896 ], [ 116.117131940573472, 3.107811556939896 ], [ 116.117131940573472, 3.107991219996721 ], [ 116.117311603630284, 3.107991219996721 ], [ 116.117311603630284, 3.108530209167192 ], [ 116.117850592800764, 3.108530209167192 ], [ 116.117850592800764, 3.10888953528084 ], [ 116.118209918914417, 3.10888953528084 ], [ 116.118209918914417, 3.109069198337664 ], [ 116.118389581971229, 3.109069198337664 ], [ 116.118389581971229, 3.109428524451312 ], [ 116.118748908084882, 3.109428524451312 ], [ 116.118748908084882, 3.109608187508135 ], [ 116.118928571141709, 3.109608187508135 ], [ 116.118928571141709, 3.109967513621783 ], [ 116.118209918914417, 3.109967513621783 ] ] ] } },
{ "type": "Feature", "properties": { "count": 4, "label": 1, "cluster_id": 317 }, "geometry": { "type": "Polygon", "coordinates": [ [ [ 116.118928571141709, 3.106374252485305 ], [ 116.119287897255347, 3.106374252485305 ], [ 116.119287897255347, 3.106733578598953 ], [ 116.118928571141709, 3.106733578598953 ], [ 116.118928571141709, 3.106374252485305 ] ] ] } },
{ "type": "Feature", "properties": { "count": 17, "label": 1, "cluster_id": 317 }, "geometry": { "type": "Polygon", "coordinates": [ [ [ 116.118928571141709, 3.107991219996721 ], [ 116.118928571141709, 3.107811556939896 ], [ 116.118748908084882, 3.107811556939896 ], [ 116.118748908084882, 3.107452230826249 ], [ 116.118389581971229, 3.107452230826249 ], [ 116.118389581971229, 3.106913241655777 ], [ 116.118928571141709, 3.106913241655777 ], [ 116.118928571141709, 3.107452230826249 ], [ 116.119287897255347, 3.107452230826249 ], [ 116.119287897255347, 3.107991219996721 ], [ 116.118928571141709, 3.107991219996721 ] ] ] } },
{ "type": "Feature", "properties": { "count": 4, "label": 1, "cluster_id": 317 }, "geometry": { "type": "Polygon", "coordinates": [ [ [ 116.121084527823598, 3.098469077985054 ], [ 116.121443853937237, 3.098469077985054 ], [ 116.121443853937237, 3.098828404098701 ], [ 116.121084527823598, 3.098828404098701 ], [ 116.121084527823598, 3.098469077985054 ] ] ] } },
{ "type": "Feature", "properties": { "count": 4, "label": 1, "cluster_id": 317 }, "geometry": { "type": "Polygon", "coordinates": [ [ [ 116.121623516994063, 3.112303133360494 ], [ 116.121982843107716, 3.112303133360494 ], [ 116.121982843107716, 3.112662459474142 ], [ 116.121623516994063, 3.112662459474142 ], [ 116.121623516994063, 3.112303133360494 ] ] ] } },
{ "type": "Feature", "properties": { "count": 12, "label": 1, "cluster_id": 317 }, "geometry": { "type": "Polygon", "coordinates": [ [ [ 116.123240484505473, 3.099008067155525 ], [ 116.123240484505473, 3.098828404098701 ], [ 116.123060821448661, 3.098828404098701 ], [ 116.123060821448661, 3.098289414928229 ], [ 116.123779473675953, 3.098289414928229 ], [ 116.123779473675953, 3.098469077985054 ], [ 116.123599810619126, 3.098469077985054 ], [ 116.123599810619126, 3.099008067155525 ], [ 116.123240484505473, 3.099008067155525 ] ] ] } },
{ "type": "Feature", "properties": { "count": 4, "label": 1, "cluster_id": 317 }, "geometry": { "type": "Polygon", "coordinates": [ [ [ 116.123240484505473, 3.1153574053265 ], [ 116.123599810619126, 3.1153574053265 ], [ 116.123599810619126, 3.115716731440148 ], [ 116.123240484505473, 3.115716731440148 ], [ 116.123240484505473, 3.1153574053265 ] ] ] } },
{ "type": "Feature", "properties": { "count": 3, "label": 1, "cluster_id": 317 }, "geometry": { "type": "Polygon", "coordinates": [ [ [ 116.123240484505473, 3.096672447416815 ], [ 116.123779473675953, 3.096672447416815 ], [ 116.123779473675953, 3.096852110473638 ], [ 116.123240484505473, 3.096852110473638 ], [ 116.123240484505473, 3.096672447416815 ] ] ] } },
{ "type": "Feature", "properties": { "count": 17, "label": 1, "cluster_id": 317 }, "geometry": { "type": "Polygon", "coordinates": [ [ [ 116.123599810619126, 3.104577621917066 ], [ 116.123599810619126, 3.104218295803419 ], [ 116.123240484505473, 3.104218295803419 ], [ 116.123240484505473, 3.103679306632947 ], [ 116.124138799789606, 3.103679306632947 ], [ 116.124138799789606, 3.104218295803419 ], [ 116.123779473675953, 3.104218295803419 ], [ 116.123779473675953, 3.104577621917066 ], [ 116.123599810619126, 3.104577621917066 ] ] ] } },
{ "type": "Feature", "properties": { "count": 6, "label": 1, "cluster_id": 317 }, "geometry": { "type": "Polygon", "coordinates": [ [ [ 116.123779473675953, 3.096852110473638 ], [ 116.124318462846418, 3.096852110473638 ], [ 116.124318462846418, 3.097211436587286 ], [ 116.123779473675953, 3.097211436587286 ], [ 116.123779473675953, 3.096852110473638 ] ] ] } },
{ "type": "Feature", "properties": { "count": 12, "label": 1, "cluster_id": 317 }, "geometry": { "type": "Polygon", "coordinates": [ [ [ 116.124138799789606, 3.079604457018544 ], [ 116.124138799789606, 3.079065467848072 ], [ 116.124498125903244, 3.079065467848072 ], [ 116.124498125903244, 3.079245130904896 ], [ 116.125037115073724, 3.079245130904896 ], [ 116.125037115073724, 3.079604457018544 ], [ 116.124138799789606, 3.079604457018544 ] ] ] } },
{ "type": "Feature", "properties": { "count": 27, "label": 1, "cluster_id": 317 }, "geometry": { "type": "Polygon", "coordinates": [ [ [ 116.124857452016897, 3.134940678520306 ], [ 116.124857452016897, 3.134581352406658 ], [ 116.124677788960071, 3.134581352406658 ], [ 116.124677788960071, 3.134042363236186 ], [ 116.124857452016897, 3.134042363236186 ], [ 116.124857452016897, 3.134401689349835 ], [ 116.125216778130536, 3.134401689349835 ], [ 116.125216778130536, 3.134042363236186 ], [ 116.125755767301015, 3.134042363236186 ], [ 116.125755767301015, 3.133503374065715 ], [ 116.126294756471481, 3.133503374065715 ], [ 116.126294756471481, 3.133862700179363 ], [ 116.125935430357842, 3.133862700179363 ], [ 116.125935430357842, 3.134401689349835 ], [ 116.125755767301015, 3.134401689349835 ], [ 116.125755767301015, 3.134581352406658 ], [ 116.125216778130536, 3.134581352406658 ], [ 116.125216778130536, 3.134940678520306 ], [ 116.124857452016897, 3.134940678520306 ] ] ] } },
{ "type": "Feature", "properties": { "count": 3, "label": 1, "cluster_id": 317 }, "geometry": { "type": "Polygon", "coordinates": [ [ [ 116.124857452016897, 3.091821544882569 ], [ 116.125396441187362, 3.091821544882569 ], [ 116.125396441187362, 3.092001207939393 ], [ 116.124857452016897, 3.092001207939393 ], [ 116.124857452016897, 3.091821544882569 ] ] ] } },
{ "type": "Feature", "properties": { "count": 1, "label": 1, "cluster_id": 317 }, "geometry": { "type": "Polygon", "coordinates": [ [ [ 116.125576104244189, 3.080682435359487 ], [ 116.125755767301015, 3.080682435359487 ], [ 116.125755767301015, 3.080862098416311 ], [ 116.125576104244189, 3.080862098416311 ], [ 116.125576104244189, 3.080682435359487 ] ] ] } },
{ "type": "Feature", "properties": { "count": 11, "label": 1, "cluster_id": 317 }, "geometry": { "type": "Polygon", "coordinates": [ [ [ 116.126294756471481, 3.139432254940904 ], [ 116.126294756471481, 3.138893265770432 ], [ 116.126474419528307, 3.138893265770432 ], [ 116.126474419528307, 3.138713602713608 ], [ 116.12683374564196, 3.138713602713608 ], [ 116.12683374564196, 3.138893265770432 ], [ 116.127013408698787, 3.138893265770432 ], [ 116.127013408698787, 3.13925259188408 ], [ 116.126474419528307, 3.13925259188408 ], [ 116.126474419528307, 3.139432254940904 ], [ 116.126294756471481, 3.139432254940904 ] ] ] } },
{ "type": "Feature", "properties": { "count": 6, "label": 1, "cluster_id": 317 }, "geometry": { "type": "Polygon", "coordinates": [ [ [ 116.126474419528307, 3.143025516077382 ], [ 116.127013408698787, 3.143025516077382 ], [ 116.127013408698787, 3.14338484219103 ], [ 116.126474419528307, 3.14338484219103 ], [ 116.126474419528307, 3.143025516077382 ] ] ] } },
{ "type": "Feature", "properties": { "count": 2, "label": 1, "cluster_id": 317 }, "geometry": { "type": "Polygon", "coordinates": [ [ [ 116.12683374564196, 3.082838392041374 ], [ 116.127193071755599, 3.082838392041374 ], [ 116.127193071755599, 3.083018055098198 ], [ 116.12683374564196, 3.083018055098198 ], [ 116.12683374564196, 3.082838392041374 ] ] ] } },
{ "type": "Feature", "properties": { "count": 2, "label": 1, "cluster_id": 317 }, "geometry": { "type": "Polygon", "coordinates": [ [ [ 116.127013408698787, 3.138713602713608 ], [ 116.127372734812425, 3.138713602713608 ], [ 116.127372734812425, 3.138893265770432 ], [ 116.127013408698787, 3.138893265770432 ], [ 116.127013408698787, 3.138713602713608 ] ] ] } },
{ "type": "Feature", "properties": { "count": 69, "label": 1, "cluster_id": 317 }, "geometry": { "type": "Polygon", "coordinates": [ [ [ 116.127372734812425, 3.081401087586783 ], [ 116.127372734812425, 3.080862098416311 ], [ 116.12683374564196, 3.080862098416311 ], [ 116.12683374564196, 3.081401087586783 ], [ 116.126294756471481, 3.081401087586783 ], [ 116.126294756471481, 3.081221424529959 ], [ 116.126654082585134, 3.081221424529959 ], [ 116.126654082585134, 3.080862098416311 ], [ 116.126294756471481, 3.080862098416311 ], [ 116.126294756471481, 3.080323109245839 ], [ 116.126115093414668, 3.080323109245839 ], [ 116.126115093414668, 3.080143446189015 ], [ 116.126654082585134, 3.080143446189015 ], [ 116.126654082585134, 3.079784120075368 ], [ 116.12683374564196, 3.079784120075368 ], [ 116.12683374564196, 3.079604457018544 ], [ 116.127372734812425, 3.079604457018544 ], [ 116.127372734812425, 3.080143446189015 ], [ 116.127732060926078, 3.080143446189015 ], [ 116.127732060926078, 3.080323109245839 ], [ 116.127911723982905, 3.080323109245839 ], [ 116.127911723982905, 3.080143446189015 ], [ 116.128271050096544, 3.080143446189015 ], [ 116.128271050096544, 3.080862098416311 ], [ 116.127911723982905, 3.080862098416311 ], [ 116.127911723982905, 3.081401087586783 ], [ 116.127372734812425, 3.081401087586783 ] ] ] } },
{ "type": "Feature", "properties": { "count": 6, "label": 1, "cluster_id": 317 }, "geometry": { "type": "Polygon", "coordinates": [ [ [ 116.127013408698787, 3.135479667690778 ], [ 116.128091387039731, 3.135479667690778 ], [ 116.128091387039731, 3.135659330747602 ], [ 116.127013408698787, 3.135659330747602 ], [ 116.127013408698787, 3.135479667690778 ] ] ] } },
{ "type": "Feature", "properties": { "count": 4, "label": 1, "cluster_id": 317 }, "geometry": { "type": "Polygon", "coordinates": [ [ [ 116.127911723982905, 3.081940076757254 ], [ 116.128271050096544, 3.081940076757254 ], [ 116.128271050096544, 3.082299402870902 ], [ 116.127911723982905, 3.082299402870902 ], [ 116.127911723982905, 3.081940076757254 ] ] ] } },
{ "type": "Feature", "properties": { "count": 8, "label": 1, "cluster_id": 317 }, "geometry": { "type": "Polygon", "coordinates": [ [ [ 116.128091387039731, 3.13835427659996 ], [ 116.128091387039731, 3.138174613543137 ], [ 116.127911723982905, 3.138174613543137 ], [ 116.127911723982905, 3.137815287429488 ], [ 116.12845071315337, 3.137815287429488 ], [ 116.12845071315337, 3.13835427659996 ], [ 116.128091387039731, 3.13835427659996 ] ] ] } },
{ "type": "Feature", "properties": { "count": 1, "label": 1, "cluster_id": 317 }, "geometry": { "type": "Polygon", "coordinates": [ [ [ 116.128810039267023, 3.084455359552789 ], [ 116.12898970232385, 3.084455359552789 ], [ 116.12898970232385, 3.084635022609613 ], [ 116.128810039267023, 3.084635022609613 ], [ 116.128810039267023, 3.084455359552789 ] ] ] } },
{ "type": "Feature", "properties": { "count": 9, "label": 1, "cluster_id": 317 }, "geometry": { "type": "Polygon", "coordinates": [ [ [ 116.12898970232385, 3.140689896338671 ], [ 116.12898970232385, 3.140330570225023 ], [ 116.128630376210197, 3.140330570225023 ], [ 116.128630376210197, 3.140150907168199 ], [ 116.12898970232385, 3.140150907168199 ], [ 116.12898970232385, 3.139432254940904 ], [ 116.129169365380662, 3.139432254940904 ], [ 116.129169365380662, 3.140689896338671 ], [ 116.12898970232385, 3.140689896338671 ] ] ] } },
{ "type": "Feature", "properties": { "count": 4, "label": 1, "cluster_id": 317 }, "geometry": { "type": "Polygon", "coordinates": [ [ [ 116.12898970232385, 3.084096033439141 ], [ 116.129349028437488, 3.084096033439141 ], [ 116.129349028437488, 3.084455359552789 ], [ 116.12898970232385, 3.084455359552789 ], [ 116.12898970232385, 3.084096033439141 ] ] ] } },
{ "type": "Feature", "properties": { "count": 87, "label": 1, "cluster_id": 317 }, "geometry": { "type": "Polygon", "coordinates": [ [ [ 116.129528691494315, 3.08355704426867 ], [ 116.129528691494315, 3.082838392041374 ], [ 116.12898970232385, 3.082838392041374 ], [ 116.12898970232385, 3.082479065927726 ], [ 116.12845071315337, 3.082479065927726 ], [ 116.12845071315337, 3.082299402870902 ], [ 116.128810039267023, 3.082299402870902 ], [ 116.128810039267023, 3.081401087586783 ], [ 116.129349028437488, 3.081401087586783 ], [ 116.129349028437488, 3.081940076757254 ], [ 116.129528691494315, 3.081940076757254 ], [ 116.129528691494315, 3.082299402870902 ], [ 116.129888017607968, 3.082299402870902 ], [ 116.129888017607968, 3.081940076757254 ], [ 116.130067680664794, 3.081940076757254 ], [ 116.130067680664794, 3.08176041370043 ], [ 116.129888017607968, 3.08176041370043 ], [ 116.129888017607968, 3.081401087586783 ], [ 116.129349028437488, 3.081401087586783 ], [ 116.129349028437488, 3.081221424529959 ], [ 116.128810039267023, 3.081221424529959 ], [ 116.128810039267023, 3.080862098416311 ], [ 116.129888017607968, 3.080862098416311 ], [ 116.129888017607968, 3.081221424529959 ], [ 116.130427006778433, 3.081221424529959 ], [ 116.130427006778433, 3.082299402870902 ], [ 116.130067680664794, 3.082299402870902 ], [ 116.130067680664794, 3.082479065927726 ], [ 116.130427006778433, 3.082479065927726 ], [ 116.130427006778433, 3.083018055098198 ], [ 116.130067680664794, 3.083018055098198 ], [ 116.130067680664794, 3.083377381211846 ], [ 116.129888017607968, 3.083377381211846 ], [ 116.129888017607968, 3.08355704426867 ], [ 116.129528691494315, 3.08355704426867 ] ] ] } },
{ "type": "Feature", "properties": { "count": 2, "label": 1, "cluster_id": 317 }, "geometry": { "type": "Polygon", "coordinates": [ [ [ 116.130067680664794, 3.112303133360494 ], [ 116.130247343721607, 3.112303133360494 ], [ 116.130247343721607, 3.112662459474142 ], [ 116.130067680664794, 3.112662459474142 ], [ 116.130067680664794, 3.112303133360494 ] ] ] } },
{ "type": "Feature", "properties": { "count": 9, "label": 1, "cluster_id": 317 }, "geometry": { "type": "Polygon", "coordinates": [ [ [ 116.130067680664794, 3.139432254940904 ], [ 116.130067680664794, 3.13925259188408 ], [ 116.129708354551141, 3.13925259188408 ], [ 116.129708354551141, 3.138713602713608 ], [ 116.130067680664794, 3.138713602713608 ], [ 116.130067680664794, 3.138893265770432 ], [ 116.130247343721607, 3.138893265770432 ], [ 116.130247343721607, 3.139432254940904 ], [ 116.130067680664794, 3.139432254940904 ] ] ] } },
{ "type": "Feature", "properties": { "count": 3, "label": 1, "cluster_id": 317 }, "geometry": { "type": "Polygon", "coordinates": [ [ [ 116.131684648176204, 3.116435383667444 ], [ 116.131864311233031, 3.116435383667444 ], [ 116.131864311233031, 3.116974372837916 ], [ 116.131684648176204, 3.116974372837916 ], [ 116.131684648176204, 3.116435383667444 ] ] ] } },
{ "type": "Feature", "properties": { "count": 33, "label": 1, "cluster_id": 317 }, "geometry": { "type": "Polygon", "coordinates": [ [ [ 116.131684648176204, 3.121825275372161 ], [ 116.131684648176204, 3.120567633974394 ], [ 116.132223637346669, 3.120567633974394 ], [ 116.132223637346669, 3.120208307860746 ], [ 116.132403300403496, 3.120208307860746 ], [ 116.132403300403496, 3.120567633974394 ], [ 116.132762626517149, 3.120567633974394 ], [ 116.132762626517149, 3.121106623144866 ], [ 116.132403300403496, 3.121106623144866 ], [ 116.132403300403496, 3.121645612315337 ], [ 116.131864311233031, 3.121645612315337 ], [ 116.131864311233031, 3.121825275372161 ], [ 116.131684648176204, 3.121825275372161 ] ] ] } },
{ "type": "Feature", "properties": { "count": 30, "label": 1, "cluster_id": 317 }, "geometry": { "type": "Polygon", "coordinates": [ [ [ 116.132403300403496, 3.140689896338671 ], [ 116.132403300403496, 3.140330570225023 ], [ 116.132223637346669, 3.140330570225023 ], [ 116.132223637346669, 3.139791581054551 ], [ 116.131864311233031, 3.139791581054551 ], [ 116.131864311233031, 3.139432254940904 ], [ 116.132223637346669, 3.139432254940904 ], [ 116.132223637346669, 3.13925259188408 ], [ 116.132403300403496, 3.13925259188408 ], [ 116.132403300403496, 3.140150907168199 ], [ 116.132762626517149, 3.140150907168199 ], [ 116.132762626517149, 3.13925259188408 ], [ 116.132942289573975, 3.13925259188408 ], [ 116.132942289573975, 3.139791581054551 ], [ 116.133301615687614, 3.139791581054551 ], [ 116.133301615687614, 3.140330570225023 ], [ 116.132942289573975, 3.140330570225023 ], [ 116.132942289573975, 3.140689896338671 ], [ 116.132403300403496, 3.140689896338671 ] ] ] } },
{ "type": "Feature", "properties": { "count": 3, "label": 1, "cluster_id": 317 }, "geometry": { "type": "Polygon", "coordinates": [ [ [ 116.133301615687614, 3.121286286201689 ], [ 116.133481278744441, 3.121286286201689 ], [ 116.133481278744441, 3.121825275372161 ], [ 116.133301615687614, 3.121825275372161 ], [ 116.133301615687614, 3.121286286201689 ] ] ] } },
{ "type": "Feature", "properties": { "count": 13, "label": 1, "cluster_id": 317 }, "geometry": { "type": "Polygon", "coordinates": [ [ [ 116.132942289573975, 3.122903253713104 ], [ 116.132942289573975, 3.12272359065628 ], [ 116.133301615687614, 3.12272359065628 ], [ 116.133301615687614, 3.122184601485809 ], [ 116.13402026791492, 3.122184601485809 ], [ 116.13402026791492, 3.122364264542633 ], [ 116.133840604858094, 3.122364264542633 ], [ 116.133840604858094, 3.12272359065628 ], [ 116.133481278744441, 3.12272359065628 ], [ 116.133481278744441, 3.122903253713104 ], [ 116.132942289573975, 3.122903253713104 ] ] ] } },
{ "type": "Feature", "properties": { "count": 6, "label": 1, "cluster_id": 317 }, "geometry": { "type": "Polygon", "coordinates": [ [ [ 116.133301615687614, 3.117513362008387 ], [ 116.133840604858094, 3.117513362008387 ], [ 116.133840604858094, 3.117872688122035 ], [ 116.133301615687614, 3.117872688122035 ], [ 116.133301615687614, 3.117513362008387 ] ] ] } },
{ "type": "Feature", "properties": { "count": 3, "label": 1, "cluster_id": 317 }, "geometry": { "type": "Polygon", "coordinates": [ [ [ 116.133840604858094, 3.123262579826752 ], [ 116.134379594028559, 3.123262579826752 ], [ 116.134379594028559, 3.123442242883576 ], [ 116.133840604858094, 3.123442242883576 ], [ 116.133840604858094, 3.123262579826752 ] ] ] } },
{ "type": "Feature", "properties": { "count": 9, "label": 1, "cluster_id": 317 }, "geometry": { "type": "Polygon", "coordinates": [ [ [ 116.13402026791492, 3.121645612315337 ], [ 116.134559257085385, 3.121645612315337 ], [ 116.134559257085385, 3.122184601485809 ], [ 116.13402026791492, 3.122184601485809 ], [ 116.13402026791492, 3.121645612315337 ] ] ] } },
{ "type": "Feature", "properties": { "count": 2, "label": 1, "cluster_id": 317 }, "geometry": { "type": "Polygon", "coordinates": [ [ [ 116.134379594028559, 3.141408548565967 ], [ 116.134559257085385, 3.141408548565967 ], [ 116.134559257085385, 3.141767874679614 ], [ 116.134379594028559, 3.141767874679614 ], [ 116.134379594028559, 3.141408548565967 ] ] ] } },
{ "type": "Feature", "properties": { "count": 2, "label": 1, "cluster_id": 317 }, "geometry": { "type": "Polygon", "coordinates": [ [ [ 116.134559257085385, 3.141228885509143 ], [ 116.134918583199038, 3.141228885509143 ], [ 116.134918583199038, 3.141408548565967 ], [ 116.134559257085385, 3.141408548565967 ], [ 116.134559257085385, 3.141228885509143 ] ] ] } },
{ "type": "Feature", "properties": { "count": 4, "label": 1, "cluster_id": 317 }, "geometry": { "type": "Polygon", "coordinates": [ [ [ 116.135098246255851, 3.117513362008387 ], [ 116.135457572369504, 3.117513362008387 ], [ 116.135457572369504, 3.117872688122035 ], [ 116.135098246255851, 3.117872688122035 ], [ 116.135098246255851, 3.117513362008387 ] ] ] } },
{ "type": "Feature", "properties": { "count": 2, "label": 1, "cluster_id": 317 }, "geometry": { "type": "Polygon", "coordinates": [ [ [ 116.135996561539983, 3.149493386123043 ], [ 116.136176224596795, 3.149493386123043 ], [ 116.136176224596795, 3.14985271223669 ], [ 116.135996561539983, 3.14985271223669 ], [ 116.135996561539983, 3.149493386123043 ] ] ] } },
{ "type": "Feature", "properties": { "count": 4, "label": 1, "cluster_id": 317 }, "geometry": { "type": "Polygon", "coordinates": [ [ [ 116.13725420293774, 3.150032375293514 ], [ 116.137613529051393, 3.150032375293514 ], [ 116.137613529051393, 3.150391701407162 ], [ 116.13725420293774, 3.150391701407162 ], [ 116.13725420293774, 3.150032375293514 ] ] ] } },
{ "type": "Feature", "properties": { "count": 5, "label": 1, "cluster_id": 317 }, "geometry": { "type": "Polygon", "coordinates": [ [ [ 116.138332181278685, 3.12272359065628 ], [ 116.139230496562803, 3.12272359065628 ], [ 116.139230496562803, 3.122903253713104 ], [ 116.138332181278685, 3.122903253713104 ], [ 116.138332181278685, 3.12272359065628 ] ] ] } },
{ "type": "Feature", "properties": { "count": 6, "label": 1, "cluster_id": 317 }, "geometry": { "type": "Polygon", "coordinates": [ [ [ 116.139230496562803, 3.090743566541625 ], [ 116.139589822676456, 3.090743566541625 ], [ 116.139589822676456, 3.091282555712097 ], [ 116.139230496562803, 3.091282555712097 ], [ 116.139230496562803, 3.090743566541625 ] ] ] } },
{ "type": "Feature", "properties": { "count": 2, "label": 1, "cluster_id": 317 }, "geometry": { "type": "Polygon", "coordinates": [ [ [ 116.139769485733282, 3.092360534053041 ], [ 116.140128811846921, 3.092360534053041 ], [ 116.140128811846921, 3.092540197109864 ], [ 116.139769485733282, 3.092540197109864 ], [ 116.139769485733282, 3.092360534053041 ] ] ] } },
{ "type": "Feature", "properties": { "count": 3, "label": 1, "cluster_id": 317 }, "geometry": { "type": "Polygon", "coordinates": [ [ [ 116.140128811846921, 3.104038632746595 ], [ 116.140308474903748, 3.104038632746595 ], [ 116.140308474903748, 3.104577621917066 ], [ 116.140128811846921, 3.104577621917066 ], [ 116.140128811846921, 3.104038632746595 ] ] ] } },
{ "type": "Feature", "properties": { "count": 2, "label": 1, "cluster_id": 317 }, "geometry": { "type": "Polygon", "coordinates": [ [ [ 116.140667801017401, 3.10475728497389 ], [ 116.140847464074227, 3.10475728497389 ], [ 116.140847464074227, 3.105116611087538 ], [ 116.140667801017401, 3.105116611087538 ], [ 116.140667801017401, 3.10475728497389 ] ] ] } },
{ "type": "Feature", "properties": { "count": 2, "label": 1, "cluster_id": 317 }, "geometry": { "type": "Polygon", "coordinates": [ [ [ 116.140667801017401, 3.105296274144362 ], [ 116.140847464074227, 3.105296274144362 ], [ 116.140847464074227, 3.10565560025801 ], [ 116.140667801017401, 3.10565560025801 ], [ 116.140667801017401, 3.105296274144362 ] ] ] } },
{ "type": "Feature", "properties": { "count": 14, "label": 1, "cluster_id": 317 }, "geometry": { "type": "Polygon", "coordinates": [ [ [ 116.141925442415172, 3.13512034157713 ], [ 116.141925442415172, 3.134940678520306 ], [ 116.141566116301519, 3.134940678520306 ], [ 116.141566116301519, 3.134581352406658 ], [ 116.141925442415172, 3.134581352406658 ], [ 116.141925442415172, 3.134401689349835 ], [ 116.142464431585637, 3.134401689349835 ], [ 116.142464431585637, 3.134940678520306 ], [ 116.142105105471984, 3.134940678520306 ], [ 116.142105105471984, 3.13512034157713 ], [ 116.141925442415172, 3.13512034157713 ] ] ] } },
{ "type": "Feature", "properties": { "count": 21, "label": 1, "cluster_id": 317 }, "geometry": { "type": "Polygon", "coordinates": [ [ [ 116.143003420756102, 3.135659330747602 ], [ 116.143003420756102, 3.135479667690778 ], [ 116.142464431585637, 3.135479667690778 ], [ 116.142464431585637, 3.13512034157713 ], [ 116.142644094642463, 3.13512034157713 ], [ 116.142644094642463, 3.134940678520306 ], [ 116.144081399097047, 3.134940678520306 ], [ 116.144081399097047, 3.135479667690778 ], [ 116.143722072983408, 3.135479667690778 ], [ 116.143722072983408, 3.13512034157713 ], [ 116.143183083812929, 3.13512034157713 ], [ 116.143183083812929, 3.135659330747602 ], [ 116.143003420756102, 3.135659330747602 ] ] ] } },
{ "type": "Feature", "properties": { "count": 21, "label": 1, "cluster_id": 317 }, "geometry": { "type": "Polygon", "coordinates": [ [ [ 116.143003420756102, 3.092360534053041 ], [ 116.143003420756102, 3.091462218768921 ], [ 116.143542409926582, 3.091462218768921 ], [ 116.143542409926582, 3.091282555712097 ], [ 116.143901736040235, 3.091282555712097 ], [ 116.143901736040235, 3.092001207939393 ], [ 116.143362746869755, 3.092001207939393 ], [ 116.143362746869755, 3.092360534053041 ], [ 116.143003420756102, 3.092360534053041 ] ] ] } },
{ "type": "Feature", "properties": { "count": 4, "label": 1, "cluster_id": 317 }, "geometry": { "type": "Polygon", "coordinates": [ [ [ 116.143183083812929, 3.135659330747602 ], [ 116.143542409926582, 3.135659330747602 ], [ 116.143542409926582, 3.136018656861249 ], [ 116.143183083812929, 3.136018656861249 ], [ 116.143183083812929, 3.135659330747602 ] ] ] } },
{ "type": "Feature", "properties": { "count": 23, "label": 1, "cluster_id": 317 }, "geometry": { "type": "Polygon", "coordinates": [ [ [ 116.1444407252107, 3.093079186280336 ], [ 116.1444407252107, 3.092540197109864 ], [ 116.144081399097047, 3.092540197109864 ], [ 116.144081399097047, 3.092001207939393 ], [ 116.144979714381165, 3.092001207939393 ], [ 116.144979714381165, 3.092360534053041 ], [ 116.145159377437992, 3.092360534053041 ], [ 116.145159377437992, 3.092540197109864 ], [ 116.144979714381165, 3.092540197109864 ], [ 116.144979714381165, 3.092899523223513 ], [ 116.144620388267526, 3.092899523223513 ], [ 116.144620388267526, 3.093079186280336 ], [ 116.1444407252107, 3.093079186280336 ] ] ] } },
{ "type": "Feature", "properties": { "count": 9, "label": 1, "cluster_id": 317 }, "geometry": { "type": "Polygon", "coordinates": [ [ [ 116.145698366608471, 3.12865247153147 ], [ 116.146237355778936, 3.12865247153147 ], [ 116.146237355778936, 3.129191460701941 ], [ 116.145698366608471, 3.129191460701941 ], [ 116.145698366608471, 3.12865247153147 ] ] ] } },
{ "type": "Feature", "properties": { "count": 2, "label": 1, "cluster_id": 317 }, "geometry": { "type": "Polygon", "coordinates": [ [ [ 116.148932301631291, 3.092360534053041 ], [ 116.149291627744944, 3.092360534053041 ], [ 116.149291627744944, 3.092540197109864 ], [ 116.148932301631291, 3.092540197109864 ], [ 116.148932301631291, 3.092360534053041 ] ] ] } },
{ "type": "Feature", "properties": { "count": 4, "label": 1, "cluster_id": 317 }, "geometry": { "type": "Polygon", "coordinates": [ [ [ 116.14947129080177, 3.090384240427978 ], [ 116.149830616915423, 3.090384240427978 ], [ 116.149830616915423, 3.090743566541625 ], [ 116.14947129080177, 3.090743566541625 ], [ 116.14947129080177, 3.090384240427978 ] ] ] } },
{ "type": "Feature", "properties": { "count": 17, "label": 1, "cluster_id": 317 }, "geometry": { "type": "Polygon", "coordinates": [ [ [ 116.152166236654125, 3.092540197109864 ], [ 116.152166236654125, 3.091821544882569 ], [ 116.152525562767778, 3.091821544882569 ], [ 116.152525562767778, 3.091462218768921 ], [ 116.152705225824604, 3.091462218768921 ], [ 116.152705225824604, 3.092001207939393 ], [ 116.153064551938243, 3.092001207939393 ], [ 116.153064551938243, 3.092360534053041 ], [ 116.152525562767778, 3.092360534053041 ], [ 116.152525562767778, 3.092540197109864 ], [ 116.152166236654125, 3.092540197109864 ] ] ] } },
{ "type": "Feature", "properties": { "count": 2, "label": 1, "cluster_id": 317 }, "geometry": { "type": "Polygon", "coordinates": [ [ [ 116.152705225824604, 3.091282555712097 ], [ 116.153064551938243, 3.091282555712097 ], [ 116.153064551938243, 3.091462218768921 ], [ 116.152705225824604, 3.091462218768921 ], [ 116.152705225824604, 3.091282555712097 ] ] ] } },
{ "type": "Feature", "properties": { "count": 1, "label": 1, "cluster_id": 317 }, "geometry": { "type": "Polygon", "coordinates": [ [ [ 116.153064551938243, 3.091821544882569 ], [ 116.15324421499507, 3.091821544882569 ], [ 116.15324421499507, 3.092001207939393 ], [ 116.153064551938243, 3.092001207939393 ], [ 116.153064551938243, 3.091821544882569 ] ] ] } },
{ "type": "Feature", "properties": { "count": 21, "label": 1, "cluster_id": 317 }, "geometry": { "type": "Polygon", "coordinates": [ [ [ 116.153064551938243, 3.100804697723764 ], [ 116.153064551938243, 3.099906382439645 ], [ 116.15324421499507, 3.099906382439645 ], [ 116.15324421499507, 3.099726719382821 ], [ 116.153783204165549, 3.099726719382821 ], [ 116.153783204165549, 3.099906382439645 ], [ 116.154142530279188, 3.099906382439645 ], [ 116.154142530279188, 3.100265708553293 ], [ 116.153783204165549, 3.100265708553293 ], [ 116.153783204165549, 3.100445371610117 ], [ 116.15324421499507, 3.100445371610117 ], [ 116.15324421499507, 3.100804697723764 ], [ 116.153064551938243, 3.100804697723764 ] ] ] } },
{ "type": "Feature", "properties": { "count": 3, "label": 1, "cluster_id": 317 }, "geometry": { "type": "Polygon", "coordinates": [ [ [ 116.153064551938243, 3.111404818076374 ], [ 116.15324421499507, 3.111404818076374 ], [ 116.15324421499507, 3.111943807246846 ], [ 116.153064551938243, 3.111943807246846 ], [ 116.153064551938243, 3.111404818076374 ] ] ] } },
{ "type": "Feature", "properties": { "count": 3, "label": 1, "cluster_id": 317 }, "geometry": { "type": "Polygon", "coordinates": [ [ [ 116.154681519449667, 3.113201448644614 ], [ 116.15486118250648, 3.113201448644614 ], [ 116.15486118250648, 3.113740437815085 ], [ 116.154681519449667, 3.113740437815085 ], [ 116.154681519449667, 3.113201448644614 ] ] ] } },
{ "type": "Feature", "properties": { "count": 3, "label": 1, "cluster_id": 317 }, "geometry": { "type": "Polygon", "coordinates": [ [ [ 116.154681519449667, 3.114818416156029 ], [ 116.15486118250648, 3.114818416156029 ], [ 116.15486118250648, 3.1153574053265 ], [ 116.154681519449667, 3.1153574053265 ], [ 116.154681519449667, 3.114818416156029 ] ] ] } },
{ "type": "Feature", "properties": { "count": 98, "label": 1, "cluster_id": 317 }, "geometry": { "type": "Polygon", "coordinates": [ [ [ 116.154681519449667, 3.099726719382821 ], [ 116.154681519449667, 3.099367393269173 ], [ 116.154322193336014, 3.099367393269173 ], [ 116.154322193336014, 3.099187730212349 ], [ 116.154681519449667, 3.099187730212349 ], [ 116.154681519449667, 3.098648741041877 ], [ 116.15486118250648, 3.098648741041877 ], [ 116.15486118250648, 3.098289414928229 ], [ 116.154322193336014, 3.098289414928229 ], [ 116.154322193336014, 3.097930088814582 ], [ 116.153783204165549, 3.097930088814582 ], [ 116.153783204165549, 3.098289414928229 ], [ 116.153064551938243, 3.098289414928229 ], [ 116.153064551938243, 3.097750425757758 ], [ 116.15324421499507, 3.097750425757758 ], [ 116.15324421499507, 3.097930088814582 ], [ 116.153603541108723, 3.097930088814582 ], [ 116.153603541108723, 3.097750425757758 ], [ 116.153783204165549, 3.097750425757758 ], [ 116.153783204165549, 3.09739109964411 ], [ 116.154322193336014, 3.09739109964411 ], [ 116.154322193336014, 3.097750425757758 ], [ 116.155220508620133, 3.097750425757758 ], [ 116.155220508620133, 3.097930088814582 ], [ 116.155400171676959, 3.097930088814582 ], [ 116.155400171676959, 3.098289414928229 ], [ 116.156478150017904, 3.098289414928229 ], [ 116.156478150017904, 3.098648741041877 ], [ 116.156837476131543, 3.098648741041877 ], [ 116.156837476131543, 3.098828404098701 ], [ 116.156478150017904, 3.098828404098701 ], [ 116.156478150017904, 3.099187730212349 ], [ 116.155400171676959, 3.099187730212349 ], [ 116.155400171676959, 3.099367393269173 ], [ 116.155220508620133, 3.099367393269173 ], [ 116.155220508620133, 3.099726719382821 ], [ 116.154681519449667, 3.099726719382821 ] ] ] } },
{ "type": "Feature", "properties": { "count": 34, "label": 1, "cluster_id": 317 }, "geometry": { "type": "Polygon", "coordinates": [ [ [ 116.15486118250648, 3.101882676064708 ], [ 116.15486118250648, 3.10152334995106 ], [ 116.154322193336014, 3.10152334995106 ], [ 116.154322193336014, 3.100804697723764 ], [ 116.154681519449667, 3.100804697723764 ], [ 116.154681519449667, 3.100445371610117 ], [ 116.154322193336014, 3.100445371610117 ], [ 116.154322193336014, 3.100265708553293 ], [ 116.15486118250648, 3.100265708553293 ], [ 116.15486118250648, 3.100445371610117 ], [ 116.155220508620133, 3.100445371610117 ], [ 116.155220508620133, 3.101343686894236 ], [ 116.155400171676959, 3.101343686894236 ], [ 116.155400171676959, 3.10152334995106 ], [ 116.155220508620133, 3.10152334995106 ], [ 116.155220508620133, 3.101882676064708 ], [ 116.15486118250648, 3.101882676064708 ] ] ] } },
{ "type": "Feature", "properties": { "count": 62, "label": 1, "cluster_id": 317 }, "geometry": { "type": "Polygon", "coordinates": [ [ [ 116.154681519449667, 3.111943807246846 ], [ 116.154681519449667, 3.111045491962727 ], [ 116.154142530279188, 3.111045491962727 ], [ 116.154142530279188, 3.110506502792255 ], [ 116.15486118250648, 3.110506502792255 ], [ 116.15486118250648, 3.109608187508135 ], [ 116.154681519449667, 3.109608187508135 ], [ 116.154681519449667, 3.109428524451312 ], [ 116.155220508620133, 3.109428524451312 ], [ 116.155220508620133, 3.109608187508135 ], [ 116.155400171676959, 3.109608187508135 ], [ 116.155400171676959, 3.109967513621783 ], [ 116.155759497790612, 3.109967513621783 ], [ 116.155759497790612, 3.110506502792255 ], [ 116.155400171676959, 3.110506502792255 ], [ 116.155400171676959, 3.111404818076374 ], [ 116.155220508620133, 3.111404818076374 ], [ 116.155220508620133, 3.111943807246846 ], [ 116.154681519449667, 3.111943807246846 ] ] ] } },
{ "type": "Feature", "properties": { "count": 124, "label": 1, "cluster_id": 317 }, "geometry": { "type": "Polygon", "coordinates": [ [ [ 116.15486118250648, 3.119669318690274 ], [ 116.15486118250648, 3.118591340349331 ], [ 116.155220508620133, 3.118591340349331 ], [ 116.155220508620133, 3.118411677292507 ], [ 116.154322193336014, 3.118411677292507 ], [ 116.154322193336014, 3.118950666462978 ], [ 116.154142530279188, 3.118950666462978 ], [ 116.154142530279188, 3.118411677292507 ], [ 116.153783204165549, 3.118411677292507 ], [ 116.153783204165549, 3.117872688122035 ], [ 116.154142530279188, 3.117872688122035 ], [ 116.154142530279188, 3.117513362008387 ], [ 116.153783204165549, 3.117513362008387 ], [ 116.153783204165549, 3.116794709781092 ], [ 116.154142530279188, 3.116794709781092 ], [ 116.154142530279188, 3.116974372837916 ], [ 116.15486118250648, 3.116974372837916 ], [ 116.15486118250648, 3.117333698951564 ], [ 116.155400171676959, 3.117333698951564 ], [ 116.155400171676959, 3.117513362008387 ], [ 116.155759497790612, 3.117513362008387 ], [ 116.155759497790612, 3.117872688122035 ], [ 116.156298486961077, 3.117872688122035 ], [ 116.156298486961077, 3.118052351178859 ], [ 116.156478150017904, 3.118052351178859 ], [ 116.156478150017904, 3.118411677292507 ], [ 116.156298486961077, 3.118411677292507 ], [ 116.156298486961077, 3.118591340349331 ], [ 116.155939160847424, 3.118591340349331 ], [ 116.155939160847424, 3.118950666462978 ], [ 116.155759497790612, 3.118950666462978 ], [ 116.155759497790612, 3.11948965563345 ], [ 116.155400171676959, 3.11948965563345 ], [ 116.155400171676959, 3.119669318690274 ], [ 116.15486118250648, 3.119669318690274 ] ] ] } },
{ "type": "Feature", "properties": { "count": 103, "label": 1, "cluster_id": 317 }, "geometry": { "type": "Polygon", "coordinates": [ [ [ 116.156478150017904, 3.112662459474142 ], [ 116.156478150017904, 3.112482796417318 ], [ 116.156298486961077, 3.112482796417318 ], [ 116.156298486961077, 3.11212347030367 ], [ 116.155759497790612, 3.11212347030367 ], [ 116.155759497790612, 3.111943807246846 ], [ 116.155400171676959, 3.111943807246846 ], [ 116.155400171676959, 3.111404818076374 ], [ 116.155759497790612, 3.111404818076374 ], [ 116.155759497790612, 3.111584481133198 ], [ 116.155939160847424, 3.111584481133198 ], [ 116.155939160847424, 3.111404818076374 ], [ 116.156298486961077, 3.111404818076374 ], [ 116.156298486961077, 3.111045491962727 ], [ 116.155759497790612, 3.111045491962727 ], [ 116.155759497790612, 3.110506502792255 ], [ 116.155939160847424, 3.110506502792255 ], [ 116.155939160847424, 3.110147176678607 ], [ 116.156837476131543, 3.110147176678607 ], [ 116.156837476131543, 3.110686165849079 ], [ 116.157017139188369, 3.110686165849079 ], [ 116.157017139188369, 3.110865828905903 ], [ 116.157376465302022, 3.110865828905903 ], [ 116.157376465302022, 3.111045491962727 ], [ 116.156837476131543, 3.111045491962727 ], [ 116.156837476131543, 3.111584481133198 ], [ 116.157915454472487, 3.111584481133198 ], [ 116.157915454472487, 3.111943807246846 ], [ 116.158095117529314, 3.111943807246846 ], [ 116.158095117529314, 3.11212347030367 ], [ 116.157556128358848, 3.11212347030367 ], [ 116.157556128358848, 3.112482796417318 ], [ 116.157017139188369, 3.112482796417318 ], [ 116.157017139188369, 3.112662459474142 ], [ 116.156478150017904, 3.112662459474142 ] ] ] } },
{ "type": "Feature", "properties": { "count": 3, "label": 1, "cluster_id": 317 }, "geometry": { "type": "Polygon", "coordinates": [ [ [ 116.156478150017904, 3.118411677292507 ], [ 116.157017139188369, 3.118411677292507 ], [ 116.157017139188369, 3.118591340349331 ], [ 116.156478150017904, 3.118591340349331 ], [ 116.156478150017904, 3.118411677292507 ] ] ] } },
{ "type": "Feature", "properties": { "count": 4, "label": 1, "cluster_id": 317 }, "geometry": { "type": "Polygon", "coordinates": [ [ [ 116.157017139188369, 3.1318864065543 ], [ 116.157376465302022, 3.1318864065543 ], [ 116.157376465302022, 3.132245732667947 ], [ 116.157017139188369, 3.132245732667947 ], [ 116.157017139188369, 3.1318864065543 ] ] ] } }
]
}
